<?xml version="1.0" encoding="UTF-8"?>
<gpx version="1.1" creator="hybridx.club" xmlns="http://www.topografix.com/GPX/1/1">
<metadata><name>Ridge loop</name><desc>A made-up 14.2 km loop for trying HybridX Trail. Not a real route.</desc></metadata>
<trk><name>Ridge loop</name><trkseg>
<trkpt lat="54.4500000" lon="-3.0500000"><ele>601.4</ele></trkpt>
<trkpt lat="54.4500725" lon="-3.0499085"><ele>602.0</ele></trkpt>
<trkpt lat="54.4501406" lon="-3.0498075"><ele>602.8</ele></trkpt>
<trkpt lat="54.4502040" lon="-3.0496979"><ele>603.7</ele></trkpt>
<trkpt lat="54.4502635" lon="-3.0495821"><ele>604.8</ele></trkpt>
<trkpt lat="54.4503204" lon="-3.0494622"><ele>605.9</ele></trkpt>
<trkpt lat="54.4503767" lon="-3.0493417"><ele>607.1</ele></trkpt>
<trkpt lat="54.4504340" lon="-3.0492225"><ele>608.3</ele></trkpt>
<trkpt lat="54.4504932" lon="-3.0491060"><ele>609.6</ele></trkpt>
<trkpt lat="54.4505528" lon="-3.0489902"><ele>610.9</ele></trkpt>
<trkpt lat="54.4506118" lon="-3.0488734"><ele>612.1</ele></trkpt>
<trkpt lat="54.4506715" lon="-3.0487577"><ele>613.4</ele></trkpt>
<trkpt lat="54.4507339" lon="-3.0486465"><ele>614.5</ele></trkpt>
<trkpt lat="54.4507984" lon="-3.0485388"><ele>615.6</ele></trkpt>
<trkpt lat="54.4508692" lon="-3.0484433"><ele>616.5</ele></trkpt>
<trkpt lat="54.4509368" lon="-3.0483414"><ele>617.2</ele></trkpt>
<trkpt lat="54.4509999" lon="-3.0482313"><ele>617.9</ele></trkpt>
<trkpt lat="54.4510587" lon="-3.0481142"><ele>618.4</ele></trkpt>
<trkpt lat="54.4511138" lon="-3.0479921"><ele>618.7</ele></trkpt>
<trkpt lat="54.4511683" lon="-3.0478689"><ele>618.9</ele></trkpt>
<trkpt lat="54.4512233" lon="-3.0477466"><ele>618.9</ele></trkpt>
<trkpt lat="54.4512791" lon="-3.0476254"><ele>618.8</ele></trkpt>
<trkpt lat="54.4513352" lon="-3.0475044"><ele>618.6</ele></trkpt>
<trkpt lat="54.4513925" lon="-3.0473851"><ele>618.4</ele></trkpt>
<trkpt lat="54.4514521" lon="-3.0472694"><ele>618.0</ele></trkpt>
<trkpt lat="54.4515139" lon="-3.0471571"><ele>617.6</ele></trkpt>
<trkpt lat="54.4515779" lon="-3.0470484"><ele>617.1</ele></trkpt>
<trkpt lat="54.4516424" lon="-3.0469407"><ele>616.6</ele></trkpt>
<trkpt lat="54.4517066" lon="-3.0468322"><ele>616.1</ele></trkpt>
<trkpt lat="54.4517682" lon="-3.0467196"><ele>615.8</ele></trkpt>
<trkpt lat="54.4518264" lon="-3.0466018"><ele>615.6</ele></trkpt>
<trkpt lat="54.4518805" lon="-3.0464782"><ele>615.6</ele></trkpt>
<trkpt lat="54.4519330" lon="-3.0463527"><ele>615.8</ele></trkpt>
<trkpt lat="54.4519855" lon="-3.0462270"><ele>616.1</ele></trkpt>
<trkpt lat="54.4520384" lon="-3.0461020"><ele>616.6</ele></trkpt>
<trkpt lat="54.4520906" lon="-3.0459759"><ele>617.2</ele></trkpt>
<trkpt lat="54.4521410" lon="-3.0458479"><ele>618.0</ele></trkpt>
<trkpt lat="54.4521886" lon="-3.0457167"><ele>618.9</ele></trkpt>
<trkpt lat="54.4522330" lon="-3.0455822"><ele>620.0</ele></trkpt>
<trkpt lat="54.4522744" lon="-3.0454449"><ele>621.2</ele></trkpt>
<trkpt lat="54.4523133" lon="-3.0453054"><ele>622.5</ele></trkpt>
<trkpt lat="54.4523511" lon="-3.0451651"><ele>623.8</ele></trkpt>
<trkpt lat="54.4523879" lon="-3.0450240"><ele>625.1</ele></trkpt>
<trkpt lat="54.4524244" lon="-3.0448826"><ele>626.4</ele></trkpt>
<trkpt lat="54.4524614" lon="-3.0447416"><ele>627.6</ele></trkpt>
<trkpt lat="54.4525006" lon="-3.0446024"><ele>628.6</ele></trkpt>
<trkpt lat="54.4525424" lon="-3.0444654"><ele>629.6</ele></trkpt>
<trkpt lat="54.4525864" lon="-3.0443305"><ele>630.4</ele></trkpt>
<trkpt lat="54.4526312" lon="-3.0441964"><ele>631.3</ele></trkpt>
<trkpt lat="54.4526748" lon="-3.0440612"><ele>632.1</ele></trkpt>
<trkpt lat="54.4527150" lon="-3.0439228"><ele>633.0</ele></trkpt>
<trkpt lat="54.4527499" lon="-3.0437803"><ele>634.0</ele></trkpt>
<trkpt lat="54.4527794" lon="-3.0436342"><ele>635.2</ele></trkpt>
<trkpt lat="54.4528066" lon="-3.0434868"><ele>636.5</ele></trkpt>
<trkpt lat="54.4528349" lon="-3.0433400"><ele>637.8</ele></trkpt>
<trkpt lat="54.4528647" lon="-3.0431940"><ele>639.1</ele></trkpt>
<trkpt lat="54.4528942" lon="-3.0430479"><ele>640.5</ele></trkpt>
<trkpt lat="54.4529210" lon="-3.0429003"><ele>642.1</ele></trkpt>
<trkpt lat="54.4529434" lon="-3.0427505"><ele>643.8</ele></trkpt>
<trkpt lat="54.4529606" lon="-3.0425987"><ele>645.7</ele></trkpt>
<trkpt lat="54.4529732" lon="-3.0424456"><ele>647.6</ele></trkpt>
<trkpt lat="54.4529826" lon="-3.0422918"><ele>649.7</ele></trkpt>
<trkpt lat="54.4529908" lon="-3.0421377"><ele>651.7</ele></trkpt>
<trkpt lat="54.4529992" lon="-3.0419837"><ele>653.8</ele></trkpt>
<trkpt lat="54.4530084" lon="-3.0418299"><ele>655.7</ele></trkpt>
<trkpt lat="54.4530194" lon="-3.0416763"><ele>657.6</ele></trkpt>
<trkpt lat="54.4530337" lon="-3.0415237"><ele>659.4</ele></trkpt>
<trkpt lat="54.4530531" lon="-3.0413727"><ele>661.0</ele></trkpt>
<trkpt lat="54.4530789" lon="-3.0412245"><ele>662.3</ele></trkpt>
<trkpt lat="54.4531107" lon="-3.0410799"><ele>663.4</ele></trkpt>
<trkpt lat="54.4531469" lon="-3.0409384"><ele>664.2</ele></trkpt>
<trkpt lat="54.4531851" lon="-3.0407983"><ele>664.7</ele></trkpt>
<trkpt lat="54.4532224" lon="-3.0406575"><ele>665.1</ele></trkpt>
<trkpt lat="54.4532571" lon="-3.0405149"><ele>665.4</ele></trkpt>
<trkpt lat="54.4532903" lon="-3.0403711"><ele>665.6</ele></trkpt>
<trkpt lat="54.4533268" lon="-3.0402297"><ele>665.6</ele></trkpt>
<trkpt lat="54.4533684" lon="-3.0400926"><ele>665.3</ele></trkpt>
<trkpt lat="54.4534140" lon="-3.0399593"><ele>664.9</ele></trkpt>
<trkpt lat="54.4534613" lon="-3.0398278"><ele>664.3</ele></trkpt>
<trkpt lat="54.4535075" lon="-3.0396951"><ele>663.6</ele></trkpt>
<trkpt lat="54.4535509" lon="-3.0395596"><ele>663.0</ele></trkpt>
<trkpt lat="54.4535902" lon="-3.0394205"><ele>662.3</ele></trkpt>
<trkpt lat="54.4536261" lon="-3.0392787"><ele>661.7</ele></trkpt>
<trkpt lat="54.4536601" lon="-3.0391355"><ele>661.0</ele></trkpt>
<trkpt lat="54.4536938" lon="-3.0389921"><ele>660.2</ele></trkpt>
<trkpt lat="54.4537301" lon="-3.0388506"><ele>659.3</ele></trkpt>
<trkpt lat="54.4537718" lon="-3.0387136"><ele>658.3</ele></trkpt>
<trkpt lat="54.4538205" lon="-3.0385837"><ele>657.0</ele></trkpt>
<trkpt lat="54.4538752" lon="-3.0384609"><ele>655.6</ele></trkpt>
<trkpt lat="54.4539334" lon="-3.0383430"><ele>654.1</ele></trkpt>
<trkpt lat="54.4539931" lon="-3.0382274"><ele>652.6</ele></trkpt>
<trkpt lat="54.4540514" lon="-3.0381096"><ele>651.2</ele></trkpt>
<trkpt lat="54.4541061" lon="-3.0379870"><ele>649.9</ele></trkpt>
<trkpt lat="54.4541557" lon="-3.0378579"><ele>648.8</ele></trkpt>
<trkpt lat="54.4541997" lon="-3.0377231"><ele>647.8</ele></trkpt>
<trkpt lat="54.4542410" lon="-3.0375857"><ele>646.9</ele></trkpt>
<trkpt lat="54.4542798" lon="-3.0374462"><ele>646.1</ele></trkpt>
<trkpt lat="54.4543166" lon="-3.0373050"><ele>645.4</ele></trkpt>
<trkpt lat="54.4543535" lon="-3.0371639"><ele>644.7</ele></trkpt>
<trkpt lat="54.4543943" lon="-3.0370262"><ele>644.1</ele></trkpt>
<trkpt lat="54.4544416" lon="-3.0368946"><ele>643.5</ele></trkpt>
<trkpt lat="54.4544951" lon="-3.0367705"><ele>643.0</ele></trkpt>
<trkpt lat="54.4545539" lon="-3.0366534"><ele>642.5</ele></trkpt>
<trkpt lat="54.4546145" lon="-3.0365391"><ele>642.0</ele></trkpt>
<trkpt lat="54.4546745" lon="-3.0364239"><ele>641.7</ele></trkpt>
<trkpt lat="54.4547322" lon="-3.0363053"><ele>641.5</ele></trkpt>
<trkpt lat="54.4547884" lon="-3.0361845"><ele>641.3</ele></trkpt>
<trkpt lat="54.4548435" lon="-3.0360623"><ele>641.2</ele></trkpt>
<trkpt lat="54.4548952" lon="-3.0359358"><ele>641.2</ele></trkpt>
<trkpt lat="54.4549432" lon="-3.0358051"><ele>641.2</ele></trkpt>
<trkpt lat="54.4549864" lon="-3.0356693"><ele>641.2</ele></trkpt>
<trkpt lat="54.4550269" lon="-3.0355312"><ele>641.4</ele></trkpt>
<trkpt lat="54.4550664" lon="-3.0353923"><ele>641.5</ele></trkpt>
<trkpt lat="54.4551085" lon="-3.0352556"><ele>641.8</ele></trkpt>
<trkpt lat="54.4551558" lon="-3.0351241"><ele>642.1</ele></trkpt>
<trkpt lat="54.4552091" lon="-3.0349997"><ele>642.5</ele></trkpt>
<trkpt lat="54.4552679" lon="-3.0348827"><ele>642.9</ele></trkpt>
<trkpt lat="54.4553278" lon="-3.0347673"><ele>643.4</ele></trkpt>
<trkpt lat="54.4553880" lon="-3.0346523"><ele>643.9</ele></trkpt>
<trkpt lat="54.4554481" lon="-3.0345374"><ele>644.5</ele></trkpt>
<trkpt lat="54.4555104" lon="-3.0344258"><ele>645.1</ele></trkpt>
<trkpt lat="54.4555765" lon="-3.0343210"><ele>645.7</ele></trkpt>
<trkpt lat="54.4556524" lon="-3.0342384"><ele>646.2</ele></trkpt>
<trkpt lat="54.4557321" lon="-3.0341668"><ele>646.7</ele></trkpt>
<trkpt lat="54.4558122" lon="-3.0340964"><ele>647.1</ele></trkpt>
<trkpt lat="54.4558929" lon="-3.0340282"><ele>647.5</ele></trkpt>
<trkpt lat="54.4559725" lon="-3.0339563"><ele>647.9</ele></trkpt>
<trkpt lat="54.4560509" lon="-3.0338804"><ele>648.4</ele></trkpt>
<trkpt lat="54.4561256" lon="-3.0337945"><ele>648.8</ele></trkpt>
<trkpt lat="54.4561945" lon="-3.0336952"><ele>649.3</ele></trkpt>
<trkpt lat="54.4562551" lon="-3.0335811"><ele>649.8</ele></trkpt>
<trkpt lat="54.4563073" lon="-3.0334553"><ele>650.3</ele></trkpt>
<trkpt lat="54.4563528" lon="-3.0333219"><ele>650.7</ele></trkpt>
<trkpt lat="54.4563934" lon="-3.0331840"><ele>651.0</ele></trkpt>
<trkpt lat="54.4564324" lon="-3.0330446"><ele>651.1</ele></trkpt>
<trkpt lat="54.4564713" lon="-3.0329051"><ele>651.1</ele></trkpt>
<trkpt lat="54.4565137" lon="-3.0327688"><ele>651.0</ele></trkpt>
<trkpt lat="54.4565689" lon="-3.0326479"><ele>650.5</ele></trkpt>
<trkpt lat="54.4566435" lon="-3.0325625"><ele>649.8</ele></trkpt>
<trkpt lat="54.4567228" lon="-3.0324893"><ele>648.8</ele></trkpt>
<trkpt lat="54.4568015" lon="-3.0324146"><ele>647.8</ele></trkpt>
<trkpt lat="54.4568797" lon="-3.0323381"><ele>646.8</ele></trkpt>
<trkpt lat="54.4569577" lon="-3.0322611"><ele>645.8</ele></trkpt>
<trkpt lat="54.4570372" lon="-3.0321888"><ele>644.8</ele></trkpt>
<trkpt lat="54.4571188" lon="-3.0321240"><ele>643.7</ele></trkpt>
<trkpt lat="54.4572033" lon="-3.0320712"><ele>642.8</ele></trkpt>
<trkpt lat="54.4572901" lon="-3.0320307"><ele>641.8</ele></trkpt>
<trkpt lat="54.4573785" lon="-3.0320026"><ele>640.9</ele></trkpt>
<trkpt lat="54.4574677" lon="-3.0319836"><ele>640.1</ele></trkpt>
<trkpt lat="54.4575573" lon="-3.0319700"><ele>639.4</ele></trkpt>
<trkpt lat="54.4576470" lon="-3.0319589"><ele>638.8</ele></trkpt>
<trkpt lat="54.4577363" lon="-3.0319407"><ele>638.2</ele></trkpt>
<trkpt lat="54.4578207" lon="-3.0318912"><ele>637.9</ele></trkpt>
<trkpt lat="54.4578702" lon="-3.0317643"><ele>637.8</ele></trkpt>
<trkpt lat="54.4578990" lon="-3.0316178"><ele>637.9</ele></trkpt>
<trkpt lat="54.4579229" lon="-3.0314687"><ele>638.0</ele></trkpt>
<trkpt lat="54.4579463" lon="-3.0313194"><ele>637.9</ele></trkpt>
<trkpt lat="54.4579702" lon="-3.0311702"><ele>637.8</ele></trkpt>
<trkpt lat="54.4579962" lon="-3.0310222"><ele>637.4</ele></trkpt>
<trkpt lat="54.4580250" lon="-3.0308757"><ele>636.9</ele></trkpt>
<trkpt lat="54.4580565" lon="-3.0307308"><ele>636.1</ele></trkpt>
<trkpt lat="54.4580897" lon="-3.0305870"><ele>635.2</ele></trkpt>
<trkpt lat="54.4581215" lon="-3.0304424"><ele>634.1</ele></trkpt>
<trkpt lat="54.4581514" lon="-3.0302965"><ele>632.8</ele></trkpt>
<trkpt lat="54.4581787" lon="-3.0301492"><ele>631.3</ele></trkpt>
<trkpt lat="54.4582031" lon="-3.0300003"><ele>629.8</ele></trkpt>
<trkpt lat="54.4582265" lon="-3.0298509"><ele>628.1</ele></trkpt>
<trkpt lat="54.4582494" lon="-3.0297013"><ele>626.3</ele></trkpt>
<trkpt lat="54.4582726" lon="-3.0295519"><ele>624.5</ele></trkpt>
<trkpt lat="54.4583045" lon="-3.0294076"><ele>622.6</ele></trkpt>
<trkpt lat="54.4583719" lon="-3.0293163"><ele>621.0</ele></trkpt>
<trkpt lat="54.4584611" lon="-3.0293200"><ele>620.3</ele></trkpt>
<trkpt lat="54.4585496" lon="-3.0293469"><ele>620.0</ele></trkpt>
<trkpt lat="54.4586369" lon="-3.0293844"><ele>619.8</ele></trkpt>
<trkpt lat="54.4587233" lon="-3.0294271"><ele>619.8</ele></trkpt>
<trkpt lat="54.4588094" lon="-3.0294717"><ele>619.8</ele></trkpt>
<trkpt lat="54.4588951" lon="-3.0295185"><ele>619.7</ele></trkpt>
<trkpt lat="54.4589803" lon="-3.0295683"><ele>619.7</ele></trkpt>
<trkpt lat="54.4590650" lon="-3.0296199"><ele>619.7</ele></trkpt>
<trkpt lat="54.4591496" lon="-3.0296726"><ele>619.5</ele></trkpt>
<trkpt lat="54.4592340" lon="-3.0297259"><ele>619.2</ele></trkpt>
<trkpt lat="54.4593186" lon="-3.0297786"><ele>618.8</ele></trkpt>
<trkpt lat="54.4594034" lon="-3.0298298"><ele>618.2</ele></trkpt>
<trkpt lat="54.4594886" lon="-3.0298796"><ele>617.5</ele></trkpt>
<trkpt lat="54.4595740" lon="-3.0299279"><ele>616.6</ele></trkpt>
<trkpt lat="54.4596601" lon="-3.0299727"><ele>615.6</ele></trkpt>
<trkpt lat="54.4597466" lon="-3.0300147"><ele>614.4</ele></trkpt>
<trkpt lat="54.4598332" lon="-3.0300566"><ele>613.1</ele></trkpt>
<trkpt lat="54.4599202" lon="-3.0300957"><ele>611.8</ele></trkpt>
<trkpt lat="54.4600078" lon="-3.0301308"><ele>610.3</ele></trkpt>
<trkpt lat="54.4600964" lon="-3.0301564"><ele>608.8</ele></trkpt>
<trkpt lat="54.4601758" lon="-3.0301108"><ele>607.3</ele></trkpt>
<trkpt lat="54.4602070" lon="-3.0299680"><ele>606.4</ele></trkpt>
<trkpt lat="54.4602183" lon="-3.0298146"><ele>605.8</ele></trkpt>
<trkpt lat="54.4602258" lon="-3.0296604"><ele>605.0</ele></trkpt>
<trkpt lat="54.4602326" lon="-3.0295062"><ele>604.1</ele></trkpt>
<trkpt lat="54.4602389" lon="-3.0293519"><ele>603.1</ele></trkpt>
<trkpt lat="54.4602448" lon="-3.0291976"><ele>602.0</ele></trkpt>
<trkpt lat="54.4602515" lon="-3.0290433"><ele>600.8</ele></trkpt>
<trkpt lat="54.4602594" lon="-3.0288892"><ele>599.5</ele></trkpt>
<trkpt lat="54.4602683" lon="-3.0287353"><ele>598.3</ele></trkpt>
<trkpt lat="54.4602779" lon="-3.0285815"><ele>596.9</ele></trkpt>
<trkpt lat="54.4602882" lon="-3.0284279"><ele>595.5</ele></trkpt>
<trkpt lat="54.4602988" lon="-3.0282743"><ele>594.0</ele></trkpt>
<trkpt lat="54.4603091" lon="-3.0281206"><ele>592.5</ele></trkpt>
<trkpt lat="54.4603189" lon="-3.0279668"><ele>590.9</ele></trkpt>
<trkpt lat="54.4603281" lon="-3.0278130"><ele>589.4</ele></trkpt>
<trkpt lat="54.4603363" lon="-3.0276589"><ele>588.0</ele></trkpt>
<trkpt lat="54.4603440" lon="-3.0275048"><ele>586.7</ele></trkpt>
<trkpt lat="54.4603514" lon="-3.0273507"><ele>585.4</ele></trkpt>
<trkpt lat="54.4603581" lon="-3.0271964"><ele>584.3</ele></trkpt>
<trkpt lat="54.4603637" lon="-3.0270420"><ele>583.4</ele></trkpt>
<trkpt lat="54.4603701" lon="-3.0268878"><ele>582.6</ele></trkpt>
<trkpt lat="54.4603816" lon="-3.0267345"><ele>581.9</ele></trkpt>
<trkpt lat="54.4604217" lon="-3.0266038"><ele>581.3</ele></trkpt>
<trkpt lat="54.4605084" lon="-3.0265851"><ele>580.9</ele></trkpt>
<trkpt lat="54.4605969" lon="-3.0266122"><ele>580.7</ele></trkpt>
<trkpt lat="54.4606840" lon="-3.0266505"><ele>580.5</ele></trkpt>
<trkpt lat="54.4607700" lon="-3.0266959"><ele>580.3</ele></trkpt>
<trkpt lat="54.4608550" lon="-3.0267463"><ele>580.0</ele></trkpt>
<trkpt lat="54.4609391" lon="-3.0268010"><ele>579.5</ele></trkpt>
<trkpt lat="54.4610222" lon="-3.0268601"><ele>578.9</ele></trkpt>
<trkpt lat="54.4611045" lon="-3.0269226"><ele>578.3</ele></trkpt>
<trkpt lat="54.4611862" lon="-3.0269872"><ele>577.4</ele></trkpt>
<trkpt lat="54.4612677" lon="-3.0270528"><ele>576.5</ele></trkpt>
<trkpt lat="54.4613490" lon="-3.0271189"><ele>575.5</ele></trkpt>
<trkpt lat="54.4614304" lon="-3.0271847"><ele>574.3</ele></trkpt>
<trkpt lat="54.4615119" lon="-3.0272500"><ele>573.1</ele></trkpt>
<trkpt lat="54.4615935" lon="-3.0273148"><ele>571.8</ele></trkpt>
<trkpt lat="54.4616753" lon="-3.0273792"><ele>570.5</ele></trkpt>
<trkpt lat="54.4617572" lon="-3.0274433"><ele>569.1</ele></trkpt>
<trkpt lat="54.4618390" lon="-3.0275073"><ele>567.7</ele></trkpt>
<trkpt lat="54.4619207" lon="-3.0275719"><ele>566.3</ele></trkpt>
<trkpt lat="54.4620023" lon="-3.0276369"><ele>564.8</ele></trkpt>
<trkpt lat="54.4620841" lon="-3.0277014"><ele>563.3</ele></trkpt>
<trkpt lat="54.4621664" lon="-3.0277636"><ele>561.8</ele></trkpt>
<trkpt lat="54.4622509" lon="-3.0278162"><ele>560.2</ele></trkpt>
<trkpt lat="54.4623317" lon="-3.0277785"><ele>558.7</ele></trkpt>
<trkpt lat="54.4623663" lon="-3.0276374"><ele>557.9</ele></trkpt>
<trkpt lat="54.4623882" lon="-3.0274874"><ele>557.4</ele></trkpt>
<trkpt lat="54.4624068" lon="-3.0273361"><ele>557.0</ele></trkpt>
<trkpt lat="54.4624239" lon="-3.0271842"><ele>556.6</ele></trkpt>
<trkpt lat="54.4624390" lon="-3.0270317"><ele>556.1</ele></trkpt>
<trkpt lat="54.4624519" lon="-3.0268787"><ele>555.7</ele></trkpt>
<trkpt lat="54.4624630" lon="-3.0267252"><ele>555.3</ele></trkpt>
<trkpt lat="54.4624725" lon="-3.0265714"><ele>554.8</ele></trkpt>
<trkpt lat="54.4624805" lon="-3.0264173"><ele>554.3</ele></trkpt>
<trkpt lat="54.4624875" lon="-3.0262631"><ele>553.8</ele></trkpt>
<trkpt lat="54.4624940" lon="-3.0261088"><ele>553.1</ele></trkpt>
<trkpt lat="54.4625002" lon="-3.0259545"><ele>552.4</ele></trkpt>
<trkpt lat="54.4625066" lon="-3.0258002"><ele>551.6</ele></trkpt>
<trkpt lat="54.4625135" lon="-3.0256460"><ele>550.8</ele></trkpt>
<trkpt lat="54.4625214" lon="-3.0254919"><ele>549.9</ele></trkpt>
<trkpt lat="54.4625307" lon="-3.0253381"><ele>548.9</ele></trkpt>
<trkpt lat="54.4625416" lon="-3.0251845"><ele>548.0</ele></trkpt>
<trkpt lat="54.4625548" lon="-3.0250315"><ele>547.0</ele></trkpt>
<trkpt lat="54.4625707" lon="-3.0248793"><ele>546.1</ele></trkpt>
<trkpt lat="54.4625905" lon="-3.0247285"><ele>545.1</ele></trkpt>
<trkpt lat="54.4626212" lon="-3.0245836"><ele>544.1</ele></trkpt>
<trkpt lat="54.4626954" lon="-3.0245266"><ele>542.4</ele></trkpt>
<trkpt lat="54.4627798" lon="-3.0245767"><ele>540.8</ele></trkpt>
<trkpt lat="54.4628599" lon="-3.0246469"><ele>539.2</ele></trkpt>
<trkpt lat="54.4629391" lon="-3.0247204"><ele>537.6</ele></trkpt>
<trkpt lat="54.4630181" lon="-3.0247942"><ele>535.9</ele></trkpt>
<trkpt lat="54.4630973" lon="-3.0248676"><ele>534.2</ele></trkpt>
<trkpt lat="54.4631766" lon="-3.0249404"><ele>532.5</ele></trkpt>
<trkpt lat="54.4632562" lon="-3.0250126"><ele>530.9</ele></trkpt>
<trkpt lat="54.4633360" lon="-3.0250839"><ele>529.3</ele></trkpt>
<trkpt lat="54.4634160" lon="-3.0251544"><ele>527.8</ele></trkpt>
<trkpt lat="54.4634961" lon="-3.0252247"><ele>526.3</ele></trkpt>
<trkpt lat="54.4635762" lon="-3.0252949"><ele>525.0</ele></trkpt>
<trkpt lat="54.4636563" lon="-3.0253652"><ele>523.7</ele></trkpt>
<trkpt lat="54.4637363" lon="-3.0254361"><ele>522.4</ele></trkpt>
<trkpt lat="54.4638160" lon="-3.0255078"><ele>521.3</ele></trkpt>
<trkpt lat="54.4638956" lon="-3.0255797"><ele>520.2</ele></trkpt>
<trkpt lat="54.4639754" lon="-3.0256511"><ele>519.2</ele></trkpt>
<trkpt lat="54.4640553" lon="-3.0257221"><ele>518.3</ele></trkpt>
<trkpt lat="54.4641354" lon="-3.0257923"><ele>517.3</ele></trkpt>
<trkpt lat="54.4642161" lon="-3.0258604"><ele>516.4</ele></trkpt>
<trkpt lat="54.4642978" lon="-3.0259250"><ele>515.5</ele></trkpt>
<trkpt lat="54.4643803" lon="-3.0259870"><ele>514.7</ele></trkpt>
<trkpt lat="54.4644632" lon="-3.0260469"><ele>513.8</ele></trkpt>
<trkpt lat="54.4645471" lon="-3.0261025"><ele>513.1</ele></trkpt>
<trkpt lat="54.4646338" lon="-3.0261421"><ele>512.3</ele></trkpt>
<trkpt lat="54.4647161" lon="-3.0261147"><ele>511.7</ele></trkpt>
<trkpt lat="54.4647469" lon="-3.0259717"><ele>511.6</ele></trkpt>
<trkpt lat="54.4647592" lon="-3.0258186"><ele>511.7</ele></trkpt>
<trkpt lat="54.4647671" lon="-3.0256645"><ele>512.0</ele></trkpt>
<trkpt lat="54.4647730" lon="-3.0255102"><ele>512.4</ele></trkpt>
<trkpt lat="54.4647788" lon="-3.0253558"><ele>512.9</ele></trkpt>
<trkpt lat="54.4647850" lon="-3.0252015"><ele>513.5</ele></trkpt>
<trkpt lat="54.4647902" lon="-3.0250471"><ele>514.2</ele></trkpt>
<trkpt lat="54.4647944" lon="-3.0248926"><ele>514.9</ele></trkpt>
<trkpt lat="54.4647986" lon="-3.0247380"><ele>515.6</ele></trkpt>
<trkpt lat="54.4648030" lon="-3.0245836"><ele>516.4</ele></trkpt>
<trkpt lat="54.4648066" lon="-3.0244290"><ele>517.2</ele></trkpt>
<trkpt lat="54.4648095" lon="-3.0242744"><ele>518.0</ele></trkpt>
<trkpt lat="54.4648121" lon="-3.0241198"><ele>518.8</ele></trkpt>
<trkpt lat="54.4648143" lon="-3.0239652"><ele>519.5</ele></trkpt>
<trkpt lat="54.4648156" lon="-3.0238105"><ele>520.2</ele></trkpt>
<trkpt lat="54.4648161" lon="-3.0236558"><ele>520.8</ele></trkpt>
<trkpt lat="54.4648160" lon="-3.0235011"><ele>521.3</ele></trkpt>
<trkpt lat="54.4648151" lon="-3.0233465"><ele>521.7</ele></trkpt>
<trkpt lat="54.4648136" lon="-3.0231918"><ele>522.0</ele></trkpt>
<trkpt lat="54.4648125" lon="-3.0230372"><ele>522.2</ele></trkpt>
<trkpt lat="54.4648117" lon="-3.0228825"><ele>522.2</ele></trkpt>
<trkpt lat="54.4648111" lon="-3.0227278"><ele>522.2</ele></trkpt>
<trkpt lat="54.4648132" lon="-3.0225732"><ele>522.0</ele></trkpt>
<trkpt lat="54.4648241" lon="-3.0224198"><ele>521.5</ele></trkpt>
<trkpt lat="54.4648839" lon="-3.0223192"><ele>520.1</ele></trkpt>
<trkpt lat="54.4649727" lon="-3.0223390"><ele>518.4</ele></trkpt>
<trkpt lat="54.4650600" lon="-3.0223762"><ele>516.8</ele></trkpt>
<trkpt lat="54.4651461" lon="-3.0224210"><ele>515.2</ele></trkpt>
<trkpt lat="54.4652319" lon="-3.0224672"><ele>513.7</ele></trkpt>
<trkpt lat="54.4653178" lon="-3.0225130"><ele>512.3</ele></trkpt>
<trkpt lat="54.4654035" lon="-3.0225597"><ele>510.8</ele></trkpt>
<trkpt lat="54.4654893" lon="-3.0226062"><ele>509.4</ele></trkpt>
<trkpt lat="54.4655755" lon="-3.0226501"><ele>508.0</ele></trkpt>
<trkpt lat="54.4656621" lon="-3.0226920"><ele>506.7</ele></trkpt>
<trkpt lat="54.4657491" lon="-3.0227312"><ele>505.4</ele></trkpt>
<trkpt lat="54.4658367" lon="-3.0227664"><ele>504.2</ele></trkpt>
<trkpt lat="54.4659247" lon="-3.0227982"><ele>503.0</ele></trkpt>
<trkpt lat="54.4660133" lon="-3.0228246"><ele>501.9</ele></trkpt>
<trkpt lat="54.4661022" lon="-3.0228475"><ele>501.0</ele></trkpt>
<trkpt lat="54.4661915" lon="-3.0228666"><ele>500.1</ele></trkpt>
<trkpt lat="54.4662810" lon="-3.0228800"><ele>499.3</ele></trkpt>
<trkpt lat="54.4663708" lon="-3.0228906"><ele>498.7</ele></trkpt>
<trkpt lat="54.4664606" lon="-3.0228932"><ele>498.1</ele></trkpt>
<trkpt lat="54.4665472" lon="-3.0228617"><ele>497.8</ele></trkpt>
<trkpt lat="54.4665898" lon="-3.0227330"><ele>498.6</ele></trkpt>
<trkpt lat="54.4665948" lon="-3.0225786"><ele>499.8</ele></trkpt>
<trkpt lat="54.4665974" lon="-3.0224240"><ele>501.1</ele></trkpt>
<trkpt lat="54.4666005" lon="-3.0222694"><ele>502.3</ele></trkpt>
<trkpt lat="54.4666040" lon="-3.0221149"><ele>503.4</ele></trkpt>
<trkpt lat="54.4666105" lon="-3.0219606"><ele>504.4</ele></trkpt>
<trkpt lat="54.4666198" lon="-3.0218068"><ele>505.2</ele></trkpt>
<trkpt lat="54.4666317" lon="-3.0216534"><ele>505.9</ele></trkpt>
<trkpt lat="54.4666461" lon="-3.0215008"><ele>506.5</ele></trkpt>
<trkpt lat="54.4666623" lon="-3.0213486"><ele>507.2</ele></trkpt>
<trkpt lat="54.4666803" lon="-3.0211971"><ele>507.8</ele></trkpt>
<trkpt lat="54.4666998" lon="-3.0210461"><ele>508.4</ele></trkpt>
<trkpt lat="54.4667200" lon="-3.0208954"><ele>509.0</ele></trkpt>
<trkpt lat="54.4667437" lon="-3.0207462"><ele>509.6</ele></trkpt>
<trkpt lat="54.4667701" lon="-3.0205983"><ele>510.0</ele></trkpt>
<trkpt lat="54.4667988" lon="-3.0204517"><ele>510.2</ele></trkpt>
<trkpt lat="54.4668310" lon="-3.0203073"><ele>510.3</ele></trkpt>
<trkpt lat="54.4668635" lon="-3.0201631"><ele>510.1</ele></trkpt>
<trkpt lat="54.4668994" lon="-3.0200214"><ele>509.8</ele></trkpt>
<trkpt lat="54.4669463" lon="-3.0198906"><ele>509.1</ele></trkpt>
<trkpt lat="54.4670266" lon="-3.0198344"><ele>508.3</ele></trkpt>
<trkpt lat="54.4671163" lon="-3.0198437"><ele>507.6</ele></trkpt>
<trkpt lat="54.4672052" lon="-3.0198665"><ele>507.0</ele></trkpt>
<trkpt lat="54.4672942" lon="-3.0198891"><ele>506.4</ele></trkpt>
<trkpt lat="54.4673831" lon="-3.0199130"><ele>505.7</ele></trkpt>
<trkpt lat="54.4674719" lon="-3.0199374"><ele>505.0</ele></trkpt>
<trkpt lat="54.4675610" lon="-3.0199585"><ele>504.2</ele></trkpt>
<trkpt lat="54.4676502" lon="-3.0199779"><ele>503.3</ele></trkpt>
<trkpt lat="54.4677396" lon="-3.0199946"><ele>502.2</ele></trkpt>
<trkpt lat="54.4678291" lon="-3.0200095"><ele>501.0</ele></trkpt>
<trkpt lat="54.4679187" lon="-3.0200237"><ele>499.7</ele></trkpt>
<trkpt lat="54.4680083" lon="-3.0200369"><ele>498.2</ele></trkpt>
<trkpt lat="54.4680979" lon="-3.0200498"><ele>496.6</ele></trkpt>
<trkpt lat="54.4681876" lon="-3.0200610"><ele>494.9</ele></trkpt>
<trkpt lat="54.4682774" lon="-3.0200692"><ele>493.0</ele></trkpt>
<trkpt lat="54.4683673" lon="-3.0200711"><ele>491.1</ele></trkpt>
<trkpt lat="54.4684567" lon="-3.0200577"><ele>489.0</ele></trkpt>
<trkpt lat="54.4685344" lon="-3.0199881"><ele>487.1</ele></trkpt>
<trkpt lat="54.4685838" lon="-3.0198597"><ele>485.6</ele></trkpt>
<trkpt lat="54.4686248" lon="-3.0197220"><ele>484.1</ele></trkpt>
<trkpt lat="54.4686651" lon="-3.0195838"><ele>482.5</ele></trkpt>
<trkpt lat="54.4687070" lon="-3.0194469"><ele>480.7</ele></trkpt>
<trkpt lat="54.4687518" lon="-3.0193128"><ele>478.7</ele></trkpt>
<trkpt lat="54.4688007" lon="-3.0191831"><ele>476.6</ele></trkpt>
<trkpt lat="54.4688547" lon="-3.0190594"><ele>474.3</ele></trkpt>
<trkpt lat="54.4689145" lon="-3.0189439"><ele>471.9</ele></trkpt>
<trkpt lat="54.4689797" lon="-3.0188376"><ele>469.5</ele></trkpt>
<trkpt lat="54.4690498" lon="-3.0187407"><ele>467.0</ele></trkpt>
<trkpt lat="54.4691236" lon="-3.0186523"><ele>464.5</ele></trkpt>
<trkpt lat="54.4692004" lon="-3.0185720"><ele>462.0</ele></trkpt>
<trkpt lat="54.4692799" lon="-3.0184997"><ele>459.7</ele></trkpt>
<trkpt lat="54.4693617" lon="-3.0184354"><ele>457.4</ele></trkpt>
<trkpt lat="54.4694475" lon="-3.0183902"><ele>455.3</ele></trkpt>
<trkpt lat="54.4695372" lon="-3.0183821"><ele>453.5</ele></trkpt>
<trkpt lat="54.4696271" lon="-3.0183822"><ele>451.8</ele></trkpt>
<trkpt lat="54.4697170" lon="-3.0183775"><ele>450.3</ele></trkpt>
<trkpt lat="54.4698067" lon="-3.0183664"><ele>448.9</ele></trkpt>
<trkpt lat="54.4698961" lon="-3.0183506"><ele>447.7</ele></trkpt>
<trkpt lat="54.4699854" lon="-3.0183320"><ele>446.7</ele></trkpt>
<trkpt lat="54.4700746" lon="-3.0183118"><ele>445.9</ele></trkpt>
<trkpt lat="54.4701634" lon="-3.0182882"><ele>445.4</ele></trkpt>
<trkpt lat="54.4702514" lon="-3.0182564"><ele>445.0</ele></trkpt>
<trkpt lat="54.4703377" lon="-3.0182130"><ele>444.9</ele></trkpt>
<trkpt lat="54.4704217" lon="-3.0181580"><ele>445.0</ele></trkpt>
<trkpt lat="54.4705034" lon="-3.0180934"><ele>445.3</ele></trkpt>
<trkpt lat="54.4705832" lon="-3.0180219"><ele>445.7</ele></trkpt>
<trkpt lat="54.4706613" lon="-3.0179454"><ele>446.3</ele></trkpt>
<trkpt lat="54.4707381" lon="-3.0178649"><ele>446.9</ele></trkpt>
<trkpt lat="54.4708183" lon="-3.0177954"><ele>447.5</ele></trkpt>
<trkpt lat="54.4709008" lon="-3.0177338"><ele>448.1</ele></trkpt>
<trkpt lat="54.4709830" lon="-3.0176710"><ele>448.7</ele></trkpt>
<trkpt lat="54.4710644" lon="-3.0176054"><ele>449.5</ele></trkpt>
<trkpt lat="54.4711446" lon="-3.0175355"><ele>450.3</ele></trkpt>
<trkpt lat="54.4712220" lon="-3.0174567"><ele>451.2</ele></trkpt>
<trkpt lat="54.4712963" lon="-3.0173696"><ele>452.2</ele></trkpt>
<trkpt lat="54.4713676" lon="-3.0172754"><ele>453.1</ele></trkpt>
<trkpt lat="54.4714375" lon="-3.0171781"><ele>454.0</ele></trkpt>
<trkpt lat="54.4715072" lon="-3.0170804"><ele>454.9</ele></trkpt>
<trkpt lat="54.4715786" lon="-3.0169863"><ele>455.7</ele></trkpt>
<trkpt lat="54.4716524" lon="-3.0168980"><ele>456.5</ele></trkpt>
<trkpt lat="54.4717287" lon="-3.0168160"><ele>457.3</ele></trkpt>
<trkpt lat="54.4718065" lon="-3.0167387"><ele>458.0</ele></trkpt>
<trkpt lat="54.4718838" lon="-3.0166595"><ele>458.7</ele></trkpt>
<trkpt lat="54.4719591" lon="-3.0165749"><ele>459.4</ele></trkpt>
<trkpt lat="54.4720307" lon="-3.0164815"><ele>460.0</ele></trkpt>
<trkpt lat="54.4720991" lon="-3.0163810"><ele>460.7</ele></trkpt>
<trkpt lat="54.4721640" lon="-3.0162740"><ele>461.3</ele></trkpt>
<trkpt lat="54.4722271" lon="-3.0161637"><ele>462.0</ele></trkpt>
<trkpt lat="54.4722890" lon="-3.0160516"><ele>462.6</ele></trkpt>
<trkpt lat="54.4723512" lon="-3.0159399"><ele>463.3</ele></trkpt>
<trkpt lat="54.4724144" lon="-3.0158298"><ele>463.9</ele></trkpt>
<trkpt lat="54.4724783" lon="-3.0157209"><ele>464.6</ele></trkpt>
<trkpt lat="54.4725422" lon="-3.0156122"><ele>465.1</ele></trkpt>
<trkpt lat="54.4726036" lon="-3.0154991"><ele>465.6</ele></trkpt>
<trkpt lat="54.4726608" lon="-3.0153798"><ele>466.0</ele></trkpt>
<trkpt lat="54.4727127" lon="-3.0152536"><ele>466.4</ele></trkpt>
<trkpt lat="54.4727597" lon="-3.0151218"><ele>466.6</ele></trkpt>
<trkpt lat="54.4728034" lon="-3.0149865"><ele>466.8</ele></trkpt>
<trkpt lat="54.4728449" lon="-3.0148494"><ele>466.8</ele></trkpt>
<trkpt lat="54.4728871" lon="-3.0147127"><ele>466.7</ele></trkpt>
<trkpt lat="54.4729308" lon="-3.0145776"><ele>466.6</ele></trkpt>
<trkpt lat="54.4729775" lon="-3.0144454"><ele>466.4</ele></trkpt>
<trkpt lat="54.4730275" lon="-3.0143169"><ele>466.0</ele></trkpt>
<trkpt lat="54.4730778" lon="-3.0141887"><ele>465.7</ele></trkpt>
<trkpt lat="54.4731261" lon="-3.0140582"><ele>465.3</ele></trkpt>
<trkpt lat="54.4731691" lon="-3.0139224"><ele>464.9</ele></trkpt>
<trkpt lat="54.4732061" lon="-3.0137814"><ele>464.6</ele></trkpt>
<trkpt lat="54.4732386" lon="-3.0136372"><ele>464.4</ele></trkpt>
<trkpt lat="54.4732676" lon="-3.0134908"><ele>464.4</ele></trkpt>
<trkpt lat="54.4732958" lon="-3.0133439"><ele>464.5</ele></trkpt>
<trkpt lat="54.4733263" lon="-3.0131985"><ele>464.7</ele></trkpt>
<trkpt lat="54.4733607" lon="-3.0130556"><ele>465.1</ele></trkpt>
<trkpt lat="54.4734013" lon="-3.0129177"><ele>465.4</ele></trkpt>
<trkpt lat="54.4734458" lon="-3.0127832"><ele>465.9</ele></trkpt>
<trkpt lat="54.4734907" lon="-3.0126492"><ele>466.4</ele></trkpt>
<trkpt lat="54.4735332" lon="-3.0125130"><ele>467.0</ele></trkpt>
<trkpt lat="54.4735718" lon="-3.0123733"><ele>467.6</ele></trkpt>
<trkpt lat="54.4736076" lon="-3.0122314"><ele>468.3</ele></trkpt>
<trkpt lat="54.4736424" lon="-3.0120888"><ele>468.9</ele></trkpt>
<trkpt lat="54.4736777" lon="-3.0119465"><ele>469.4</ele></trkpt>
<trkpt lat="54.4737168" lon="-3.0118072"><ele>469.7</ele></trkpt>
<trkpt lat="54.4737597" lon="-3.0116714"><ele>469.9</ele></trkpt>
<trkpt lat="54.4738070" lon="-3.0115398"><ele>469.8</ele></trkpt>
<trkpt lat="54.4738572" lon="-3.0114114"><ele>469.4</ele></trkpt>
<trkpt lat="54.4739075" lon="-3.0112832"><ele>468.9</ele></trkpt>
<trkpt lat="54.4739599" lon="-3.0111575"><ele>468.3</ele></trkpt>
<trkpt lat="54.4740124" lon="-3.0110320"><ele>467.4</ele></trkpt>
<trkpt lat="54.4740638" lon="-3.0109050"><ele>466.5</ele></trkpt>
<trkpt lat="54.4741107" lon="-3.0107731"><ele>465.6</ele></trkpt>
<trkpt lat="54.4741510" lon="-3.0106349"><ele>464.7</ele></trkpt>
<trkpt lat="54.4741827" lon="-3.0104903"><ele>463.9</ele></trkpt>
<trkpt lat="54.4742059" lon="-3.0103409"><ele>463.2</ele></trkpt>
<trkpt lat="54.4742223" lon="-3.0101889"><ele>462.4</ele></trkpt>
<trkpt lat="54.4742347" lon="-3.0100357"><ele>461.6</ele></trkpt>
<trkpt lat="54.4742449" lon="-3.0098820"><ele>460.8</ele></trkpt>
<trkpt lat="54.4742511" lon="-3.0097278"><ele>459.9</ele></trkpt>
<trkpt lat="54.4742520" lon="-3.0095731"><ele>459.1</ele></trkpt>
<trkpt lat="54.4742489" lon="-3.0094185"><ele>458.3</ele></trkpt>
<trkpt lat="54.4742454" lon="-3.0092640"><ele>457.6</ele></trkpt>
<trkpt lat="54.4742440" lon="-3.0091093"><ele>456.9</ele></trkpt>
<trkpt lat="54.4742469" lon="-3.0089547"><ele>456.3</ele></trkpt>
<trkpt lat="54.4742528" lon="-3.0088004"><ele>455.9</ele></trkpt>
<trkpt lat="54.4742605" lon="-3.0086463"><ele>455.7</ele></trkpt>
<trkpt lat="54.4742658" lon="-3.0084919"><ele>455.8</ele></trkpt>
<trkpt lat="54.4742676" lon="-3.0083373"><ele>456.0</ele></trkpt>
<trkpt lat="54.4742658" lon="-3.0081826"><ele>456.6</ele></trkpt>
<trkpt lat="54.4742653" lon="-3.0080280"><ele>457.3</ele></trkpt>
<trkpt lat="54.4742660" lon="-3.0078733"><ele>458.2</ele></trkpt>
<trkpt lat="54.4742660" lon="-3.0077186"><ele>459.2</ele></trkpt>
<trkpt lat="54.4742606" lon="-3.0075643"><ele>460.4</ele></trkpt>
<trkpt lat="54.4742476" lon="-3.0074113"><ele>461.7</ele></trkpt>
<trkpt lat="54.4742257" lon="-3.0072614"><ele>463.0</ele></trkpt>
<trkpt lat="54.4741965" lon="-3.0071151"><ele>464.4</ele></trkpt>
<trkpt lat="54.4741626" lon="-3.0069718"><ele>465.9</ele></trkpt>
<trkpt lat="54.4741270" lon="-3.0068298"><ele>467.4</ele></trkpt>
<trkpt lat="54.4740919" lon="-3.0066874"><ele>469.0</ele></trkpt>
<trkpt lat="54.4740570" lon="-3.0065449"><ele>470.6</ele></trkpt>
<trkpt lat="54.4740218" lon="-3.0064025"><ele>472.3</ele></trkpt>
<trkpt lat="54.4739869" lon="-3.0062600"><ele>474.0</ele></trkpt>
<trkpt lat="54.4739559" lon="-3.0061148"><ele>475.9</ele></trkpt>
<trkpt lat="54.4739312" lon="-3.0059662"><ele>477.7</ele></trkpt>
<trkpt lat="54.4739162" lon="-3.0058138"><ele>479.4</ele></trkpt>
<trkpt lat="54.4739102" lon="-3.0056595"><ele>481.1</ele></trkpt>
<trkpt lat="54.4739114" lon="-3.0055049"><ele>482.6</ele></trkpt>
<trkpt lat="54.4739158" lon="-3.0053504"><ele>484.0</ele></trkpt>
<trkpt lat="54.4739197" lon="-3.0051958"><ele>485.4</ele></trkpt>
<trkpt lat="54.4739229" lon="-3.0050413"><ele>486.7</ele></trkpt>
<trkpt lat="54.4739279" lon="-3.0048868"><ele>488.1</ele></trkpt>
<trkpt lat="54.4739368" lon="-3.0047329"><ele>489.3</ele></trkpt>
<trkpt lat="54.4739468" lon="-3.0045792"><ele>490.5</ele></trkpt>
<trkpt lat="54.4739559" lon="-3.0044253"><ele>491.8</ele></trkpt>
<trkpt lat="54.4739608" lon="-3.0042709"><ele>493.2</ele></trkpt>
<trkpt lat="54.4739607" lon="-3.0041163"><ele>494.9</ele></trkpt>
<trkpt lat="54.4739552" lon="-3.0039619"><ele>496.8</ele></trkpt>
<trkpt lat="54.4739464" lon="-3.0038080"><ele>498.9</ele></trkpt>
<trkpt lat="54.4739368" lon="-3.0036542"><ele>501.2</ele></trkpt>
<trkpt lat="54.4739281" lon="-3.0035002"><ele>503.6</ele></trkpt>
<trkpt lat="54.4739204" lon="-3.0033461"><ele>506.1</ele></trkpt>
<trkpt lat="54.4739143" lon="-3.0031918"><ele>508.6</ele></trkpt>
<trkpt lat="54.4739126" lon="-3.0030372"><ele>511.2</ele></trkpt>
<trkpt lat="54.4739144" lon="-3.0028825"><ele>513.8</ele></trkpt>
<trkpt lat="54.4739187" lon="-3.0027280"><ele>516.5</ele></trkpt>
<trkpt lat="54.4739227" lon="-3.0025735"><ele>519.3</ele></trkpt>
<trkpt lat="54.4739248" lon="-3.0024189"><ele>522.3</ele></trkpt>
<trkpt lat="54.4739231" lon="-3.0022643"><ele>525.4</ele></trkpt>
<trkpt lat="54.4739165" lon="-3.0021100"><ele>528.7</ele></trkpt>
<trkpt lat="54.4739054" lon="-3.0019565"><ele>532.1</ele></trkpt>
<trkpt lat="54.4738908" lon="-3.0018039"><ele>535.6</ele></trkpt>
<trkpt lat="54.4738753" lon="-3.0016515"><ele>539.1</ele></trkpt>
<trkpt lat="54.4738583" lon="-3.0014997"><ele>542.6</ele></trkpt>
<trkpt lat="54.4738416" lon="-3.0013477"><ele>546.1</ele></trkpt>
<trkpt lat="54.4738281" lon="-3.0011948"><ele>549.5</ele></trkpt>
<trkpt lat="54.4738197" lon="-3.0010408"><ele>552.6</ele></trkpt>
<trkpt lat="54.4738171" lon="-3.0008862"><ele>555.4</ele></trkpt>
<trkpt lat="54.4738182" lon="-3.0007316"><ele>558.0</ele></trkpt>
<trkpt lat="54.4738204" lon="-3.0005769"><ele>560.3</ele></trkpt>
<trkpt lat="54.4738196" lon="-3.0004223"><ele>562.6</ele></trkpt>
<trkpt lat="54.4738134" lon="-3.0002680"><ele>565.0</ele></trkpt>
<trkpt lat="54.4738016" lon="-3.0001147"><ele>567.4</ele></trkpt>
<trkpt lat="54.4737856" lon="-2.9999625"><ele>569.7</ele></trkpt>
<trkpt lat="54.4737645" lon="-2.9998122"><ele>572.1</ele></trkpt>
<trkpt lat="54.4737364" lon="-2.9996653"><ele>574.6</ele></trkpt>
<trkpt lat="54.4737013" lon="-2.9995230"><ele>577.2</ele></trkpt>
<trkpt lat="54.4736601" lon="-2.9993854"><ele>579.8</ele></trkpt>
<trkpt lat="54.4736141" lon="-2.9992526"><ele>582.4</ele></trkpt>
<trkpt lat="54.4735659" lon="-2.9991220"><ele>584.9</ele></trkpt>
<trkpt lat="54.4735169" lon="-2.9989923"><ele>587.3</ele></trkpt>
<trkpt lat="54.4734692" lon="-2.9988612"><ele>589.6</ele></trkpt>
<trkpt lat="54.4734235" lon="-2.9987280"><ele>591.8</ele></trkpt>
<trkpt lat="54.4733786" lon="-2.9985939"><ele>593.8</ele></trkpt>
<trkpt lat="54.4733361" lon="-2.9984577"><ele>595.9</ele></trkpt>
<trkpt lat="54.4732973" lon="-2.9983181"><ele>597.9</ele></trkpt>
<trkpt lat="54.4732618" lon="-2.9981761"><ele>599.9</ele></trkpt>
<trkpt lat="54.4732269" lon="-2.9980335"><ele>602.0</ele></trkpt>
<trkpt lat="54.4731904" lon="-2.9978921"><ele>604.2</ele></trkpt>
<trkpt lat="54.4731502" lon="-2.9977537"><ele>606.6</ele></trkpt>
<trkpt lat="54.4731060" lon="-2.9976190"><ele>609.1</ele></trkpt>
<trkpt lat="54.4730583" lon="-2.9974880"><ele>611.7</ele></trkpt>
<trkpt lat="54.4730080" lon="-2.9973597"><ele>614.4</ele></trkpt>
<trkpt lat="54.4729567" lon="-2.9972327"><ele>617.2</ele></trkpt>
<trkpt lat="54.4729059" lon="-2.9971051"><ele>620.0</ele></trkpt>
<trkpt lat="54.4728595" lon="-2.9969726"><ele>622.8</ele></trkpt>
<trkpt lat="54.4728197" lon="-2.9968340"><ele>625.7</ele></trkpt>
<trkpt lat="54.4727875" lon="-2.9966896"><ele>628.5</ele></trkpt>
<trkpt lat="54.4727611" lon="-2.9965418"><ele>631.3</ele></trkpt>
<trkpt lat="54.4727379" lon="-2.9963923"><ele>633.9</ele></trkpt>
<trkpt lat="54.4727148" lon="-2.9962428"><ele>636.4</ele></trkpt>
<trkpt lat="54.4726890" lon="-2.9960946"><ele>638.8</ele></trkpt>
<trkpt lat="54.4726594" lon="-2.9959486"><ele>641.1</ele></trkpt>
<trkpt lat="54.4726262" lon="-2.9958049"><ele>643.4</ele></trkpt>
<trkpt lat="54.4725927" lon="-2.9956613"><ele>645.6</ele></trkpt>
<trkpt lat="54.4725614" lon="-2.9955164"><ele>647.7</ele></trkpt>
<trkpt lat="54.4725338" lon="-2.9953692"><ele>649.8</ele></trkpt>
<trkpt lat="54.4725113" lon="-2.9952194"><ele>651.8</ele></trkpt>
<trkpt lat="54.4724953" lon="-2.9950673"><ele>653.6</ele></trkpt>
<trkpt lat="54.4724855" lon="-2.9949136"><ele>655.3</ele></trkpt>
<trkpt lat="54.4724804" lon="-2.9947592"><ele>656.8</ele></trkpt>
<trkpt lat="54.4724777" lon="-2.9946045"><ele>658.0</ele></trkpt>
<trkpt lat="54.4724746" lon="-2.9944500"><ele>659.0</ele></trkpt>
<trkpt lat="54.4724689" lon="-2.9942956"><ele>659.8</ele></trkpt>
<trkpt lat="54.4724596" lon="-2.9941418"><ele>660.4</ele></trkpt>
<trkpt lat="54.4724483" lon="-2.9939883"><ele>660.7</ele></trkpt>
<trkpt lat="54.4724357" lon="-2.9938352"><ele>660.8</ele></trkpt>
<trkpt lat="54.4724216" lon="-2.9936824"><ele>660.6</ele></trkpt>
<trkpt lat="54.4724055" lon="-2.9935302"><ele>660.3</ele></trkpt>
<trkpt lat="54.4723873" lon="-2.9933788"><ele>659.9</ele></trkpt>
<trkpt lat="54.4723663" lon="-2.9932284"><ele>659.4</ele></trkpt>
<trkpt lat="54.4723427" lon="-2.9930791"><ele>658.8</ele></trkpt>
<trkpt lat="54.4723161" lon="-2.9929314"><ele>658.2</ele></trkpt>
<trkpt lat="54.4722867" lon="-2.9927852"><ele>657.7</ele></trkpt>
<trkpt lat="54.4722544" lon="-2.9926409"><ele>657.2</ele></trkpt>
<trkpt lat="54.4722195" lon="-2.9924983"><ele>656.8</ele></trkpt>
<trkpt lat="54.4721814" lon="-2.9923582"><ele>656.4</ele></trkpt>
<trkpt lat="54.4721397" lon="-2.9922211"><ele>656.1</ele></trkpt>
<trkpt lat="54.4720956" lon="-2.9920864"><ele>655.9</ele></trkpt>
<trkpt lat="54.4720513" lon="-2.9919518"><ele>655.6</ele></trkpt>
<trkpt lat="54.4720084" lon="-2.9918158"><ele>655.4</ele></trkpt>
<trkpt lat="54.4719683" lon="-2.9916774"><ele>655.1</ele></trkpt>
<trkpt lat="54.4719310" lon="-2.9915366"><ele>654.9</ele></trkpt>
<trkpt lat="54.4718962" lon="-2.9913940"><ele>654.8</ele></trkpt>
<trkpt lat="54.4718626" lon="-2.9912505"><ele>654.7</ele></trkpt>
<trkpt lat="54.4718295" lon="-2.9911067"><ele>654.7</ele></trkpt>
<trkpt lat="54.4717966" lon="-2.9909627"><ele>654.8</ele></trkpt>
<trkpt lat="54.4717657" lon="-2.9908175"><ele>655.0</ele></trkpt>
<trkpt lat="54.4717358" lon="-2.9906716"><ele>655.3</ele></trkpt>
<trkpt lat="54.4717049" lon="-2.9905264"><ele>655.7</ele></trkpt>
<trkpt lat="54.4716700" lon="-2.9903839"><ele>656.3</ele></trkpt>
<trkpt lat="54.4716301" lon="-2.9902453"><ele>657.0</ele></trkpt>
<trkpt lat="54.4715852" lon="-2.9901113"><ele>657.8</ele></trkpt>
<trkpt lat="54.4715373" lon="-2.9899803"><ele>658.7</ele></trkpt>
<trkpt lat="54.4714885" lon="-2.9898504"><ele>659.6</ele></trkpt>
<trkpt lat="54.4714412" lon="-2.9897189"><ele>660.6</ele></trkpt>
<trkpt lat="54.4713955" lon="-2.9895857"><ele>661.6</ele></trkpt>
<trkpt lat="54.4713515" lon="-2.9894508"><ele>662.7</ele></trkpt>
<trkpt lat="54.4713105" lon="-2.9893131"><ele>663.7</ele></trkpt>
<trkpt lat="54.4712733" lon="-2.9891723"><ele>664.8</ele></trkpt>
<trkpt lat="54.4712391" lon="-2.9890293"><ele>665.9</ele></trkpt>
<trkpt lat="54.4712066" lon="-2.9888850"><ele>667.0</ele></trkpt>
<trkpt lat="54.4711737" lon="-2.9887411"><ele>668.0</ele></trkpt>
<trkpt lat="54.4711388" lon="-2.9885986"><ele>669.0</ele></trkpt>
<trkpt lat="54.4711002" lon="-2.9884588"><ele>670.0</ele></trkpt>
<trkpt lat="54.4710579" lon="-2.9883224"><ele>671.0</ele></trkpt>
<trkpt lat="54.4710123" lon="-2.9881891"><ele>671.9</ele></trkpt>
<trkpt lat="54.4709658" lon="-2.9880567"><ele>672.8</ele></trkpt>
<trkpt lat="54.4709216" lon="-2.9879220"><ele>673.6</ele></trkpt>
<trkpt lat="54.4708817" lon="-2.9877834"><ele>674.2</ele></trkpt>
<trkpt lat="54.4708461" lon="-2.9876414"><ele>674.8</ele></trkpt>
<trkpt lat="54.4708133" lon="-2.9874974"><ele>675.2</ele></trkpt>
<trkpt lat="54.4707805" lon="-2.9873533"><ele>675.5</ele></trkpt>
<trkpt lat="54.4707456" lon="-2.9872108"><ele>675.6</ele></trkpt>
<trkpt lat="54.4707060" lon="-2.9870719"><ele>675.6</ele></trkpt>
<trkpt lat="54.4706610" lon="-2.9869381"><ele>675.5</ele></trkpt>
<trkpt lat="54.4706108" lon="-2.9868097"><ele>675.2</ele></trkpt>
<trkpt lat="54.4705577" lon="-2.9866850"><ele>674.8</ele></trkpt>
<trkpt lat="54.4705038" lon="-2.9865611"><ele>674.3</ele></trkpt>
<trkpt lat="54.4704501" lon="-2.9864371"><ele>673.6</ele></trkpt>
<trkpt lat="54.4703977" lon="-2.9863113"><ele>672.7</ele></trkpt>
<trkpt lat="54.4703474" lon="-2.9861832"><ele>671.6</ele></trkpt>
<trkpt lat="54.4702993" lon="-2.9860525"><ele>670.4</ele></trkpt>
<trkpt lat="54.4702525" lon="-2.9859204"><ele>669.1</ele></trkpt>
<trkpt lat="54.4702056" lon="-2.9857884"><ele>667.8</ele></trkpt>
<trkpt lat="54.4701568" lon="-2.9856585"><ele>666.4</ele></trkpt>
<trkpt lat="54.4701048" lon="-2.9855323"><ele>664.9</ele></trkpt>
<trkpt lat="54.4700494" lon="-2.9854105"><ele>663.5</ele></trkpt>
<trkpt lat="54.4699921" lon="-2.9852913"><ele>662.1</ele></trkpt>
<trkpt lat="54.4699320" lon="-2.9851762"><ele>660.6</ele></trkpt>
<trkpt lat="54.4698694" lon="-2.9850651"><ele>659.2</ele></trkpt>
<trkpt lat="54.4698051" lon="-2.9849571"><ele>657.7</ele></trkpt>
<trkpt lat="54.4697408" lon="-2.9848488"><ele>656.3</ele></trkpt>
<trkpt lat="54.4696778" lon="-2.9847386"><ele>655.0</ele></trkpt>
<trkpt lat="54.4696172" lon="-2.9846242"><ele>653.7</ele></trkpt>
<trkpt lat="54.4695592" lon="-2.9845060"><ele>652.4</ele></trkpt>
<trkpt lat="54.4695038" lon="-2.9843842"><ele>651.1</ele></trkpt>
<trkpt lat="54.4694497" lon="-2.9842607"><ele>649.9</ele></trkpt>
<trkpt lat="54.4693963" lon="-2.9841362"><ele>648.7</ele></trkpt>
<trkpt lat="54.4693425" lon="-2.9840123"><ele>647.6</ele></trkpt>
<trkpt lat="54.4692873" lon="-2.9838901"><ele>646.6</ele></trkpt>
<trkpt lat="54.4692292" lon="-2.9837720"><ele>645.7</ele></trkpt>
<trkpt lat="54.4691682" lon="-2.9836585"><ele>645.0</ele></trkpt>
<trkpt lat="54.4691042" lon="-2.9835498"><ele>644.4</ele></trkpt>
<trkpt lat="54.4690387" lon="-2.9834438"><ele>644.1</ele></trkpt>
<trkpt lat="54.4689730" lon="-2.9833382"><ele>643.9</ele></trkpt>
<trkpt lat="54.4689090" lon="-2.9832296"><ele>643.8</ele></trkpt>
<trkpt lat="54.4688478" lon="-2.9831162"><ele>643.8</ele></trkpt>
<trkpt lat="54.4687897" lon="-2.9829982"><ele>643.9</ele></trkpt>
<trkpt lat="54.4687331" lon="-2.9828779"><ele>644.1</ele></trkpt>
<trkpt lat="54.4686801" lon="-2.9827531"><ele>644.4</ele></trkpt>
<trkpt lat="54.4686303" lon="-2.9826243"><ele>644.7</ele></trkpt>
<trkpt lat="54.4685822" lon="-2.9824936"><ele>645.2</ele></trkpt>
<trkpt lat="54.4685331" lon="-2.9823639"><ele>645.8</ele></trkpt>
<trkpt lat="54.4684816" lon="-2.9822372"><ele>646.7</ele></trkpt>
<trkpt lat="54.4684264" lon="-2.9821151"><ele>647.8</ele></trkpt>
<trkpt lat="54.4683678" lon="-2.9819979"><ele>649.2</ele></trkpt>
<trkpt lat="54.4683070" lon="-2.9818839"><ele>650.7</ele></trkpt>
<trkpt lat="54.4682455" lon="-2.9817710"><ele>652.4</ele></trkpt>
<trkpt lat="54.4681851" lon="-2.9816564"><ele>654.1</ele></trkpt>
<trkpt lat="54.4681264" lon="-2.9815392"><ele>655.8</ele></trkpt>
<trkpt lat="54.4680714" lon="-2.9814169"><ele>657.4</ele></trkpt>
<trkpt lat="54.4680211" lon="-2.9812887"><ele>658.8</ele></trkpt>
<trkpt lat="54.4679766" lon="-2.9811543"><ele>660.0</ele></trkpt>
<trkpt lat="54.4679366" lon="-2.9810158"><ele>661.0</ele></trkpt>
<trkpt lat="54.4678997" lon="-2.9808748"><ele>661.8</ele></trkpt>
<trkpt lat="54.4678627" lon="-2.9807338"><ele>662.3</ele></trkpt>
<trkpt lat="54.4678235" lon="-2.9805946"><ele>662.8</ele></trkpt>
<trkpt lat="54.4677795" lon="-2.9804597"><ele>663.1</ele></trkpt>
<trkpt lat="54.4677313" lon="-2.9803291"><ele>663.2</ele></trkpt>
<trkpt lat="54.4676798" lon="-2.9802024"><ele>663.2</ele></trkpt>
<trkpt lat="54.4676244" lon="-2.9800806"><ele>663.0</ele></trkpt>
<trkpt lat="54.4675639" lon="-2.9799662"><ele>662.7</ele></trkpt>
<trkpt lat="54.4675002" lon="-2.9798571"><ele>662.3</ele></trkpt>
<trkpt lat="54.4674344" lon="-2.9797515"><ele>661.8</ele></trkpt>
<trkpt lat="54.4673686" lon="-2.9796461"><ele>661.2</ele></trkpt>
<trkpt lat="54.4673035" lon="-2.9795394"><ele>660.6</ele></trkpt>
<trkpt lat="54.4672395" lon="-2.9794307"><ele>659.9</ele></trkpt>
<trkpt lat="54.4671762" lon="-2.9793208"><ele>659.3</ele></trkpt>
<trkpt lat="54.4671125" lon="-2.9792116"><ele>658.8</ele></trkpt>
<trkpt lat="54.4670476" lon="-2.9791046"><ele>658.5</ele></trkpt>
<trkpt lat="54.4669819" lon="-2.9789990"><ele>658.4</ele></trkpt>
<trkpt lat="54.4669167" lon="-2.9788924"><ele>658.4</ele></trkpt>
<trkpt lat="54.4668499" lon="-2.9787890"><ele>658.7</ele></trkpt>
<trkpt lat="54.4667798" lon="-2.9786920"><ele>659.3</ele></trkpt>
<trkpt lat="54.4667047" lon="-2.9786073"><ele>660.2</ele></trkpt>
<trkpt lat="54.4666251" lon="-2.9785354"><ele>661.4</ele></trkpt>
<trkpt lat="54.4665419" lon="-2.9784768"><ele>662.9</ele></trkpt>
<trkpt lat="54.4664570" lon="-2.9784260"><ele>664.5</ele></trkpt>
<trkpt lat="54.4663713" lon="-2.9783790"><ele>666.1</ele></trkpt>
<trkpt lat="54.4662858" lon="-2.9783311"><ele>667.5</ele></trkpt>
<trkpt lat="54.4662004" lon="-2.9782823"><ele>668.8</ele></trkpt>
<trkpt lat="54.4661154" lon="-2.9782318"><ele>669.9</ele></trkpt>
<trkpt lat="54.4660317" lon="-2.9781754"><ele>670.8</ele></trkpt>
<trkpt lat="54.4659500" lon="-2.9781108"><ele>671.4</ele></trkpt>
<trkpt lat="54.4658717" lon="-2.9780350"><ele>671.7</ele></trkpt>
<trkpt lat="54.4657965" lon="-2.9779502"><ele>671.7</ele></trkpt>
<trkpt lat="54.4657241" lon="-2.9778583"><ele>671.5</ele></trkpt>
<trkpt lat="54.4656524" lon="-2.9777649"><ele>671.2</ele></trkpt>
<trkpt lat="54.4655798" lon="-2.9776737"><ele>670.8</ele></trkpt>
<trkpt lat="54.4655051" lon="-2.9775877"><ele>670.4</ele></trkpt>
<trkpt lat="54.4654288" lon="-2.9775057"><ele>670.0</ele></trkpt>
<trkpt lat="54.4653519" lon="-2.9774254"><ele>669.7</ele></trkpt>
<trkpt lat="54.4652734" lon="-2.9773502"><ele>669.4</ele></trkpt>
<trkpt lat="54.4651934" lon="-2.9772794"><ele>669.2</ele></trkpt>
<trkpt lat="54.4651127" lon="-2.9772112"><ele>669.0</ele></trkpt>
<trkpt lat="54.4650326" lon="-2.9771409"><ele>669.0</ele></trkpt>
<trkpt lat="54.4649537" lon="-2.9770667"><ele>669.0</ele></trkpt>
<trkpt lat="54.4648770" lon="-2.9769861"><ele>669.0</ele></trkpt>
<trkpt lat="54.4648020" lon="-2.9769005"><ele>669.1</ele></trkpt>
<trkpt lat="54.4647287" lon="-2.9768110"><ele>669.3</ele></trkpt>
<trkpt lat="54.4646556" lon="-2.9767209"><ele>669.5</ele></trkpt>
<trkpt lat="54.4645824" lon="-2.9766312"><ele>669.9</ele></trkpt>
<trkpt lat="54.4645095" lon="-2.9765405"><ele>670.2</ele></trkpt>
<trkpt lat="54.4644371" lon="-2.9764487"><ele>670.7</ele></trkpt>
<trkpt lat="54.4643634" lon="-2.9763602"><ele>671.2</ele></trkpt>
<trkpt lat="54.4642866" lon="-2.9762797"><ele>671.9</ele></trkpt>
<trkpt lat="54.4642056" lon="-2.9762128"><ele>672.7</ele></trkpt>
<trkpt lat="54.4641209" lon="-2.9761613"><ele>673.7</ele></trkpt>
<trkpt lat="54.4640335" lon="-2.9761249"><ele>674.9</ele></trkpt>
<trkpt lat="54.4639450" lon="-2.9760977"><ele>676.0</ele></trkpt>
<trkpt lat="54.4638559" lon="-2.9760758"><ele>677.1</ele></trkpt>
<trkpt lat="54.4637669" lon="-2.9760541"><ele>678.0</ele></trkpt>
<trkpt lat="54.4636777" lon="-2.9760339"><ele>678.8</ele></trkpt>
<trkpt lat="54.4635890" lon="-2.9760090"><ele>679.3</ele></trkpt>
<trkpt lat="54.4635010" lon="-2.9759774"><ele>679.7</ele></trkpt>
<trkpt lat="54.4634142" lon="-2.9759366"><ele>679.8</ele></trkpt>
<trkpt lat="54.4633286" lon="-2.9758894"><ele>679.7</ele></trkpt>
<trkpt lat="54.4632438" lon="-2.9758380"><ele>679.4</ele></trkpt>
<trkpt lat="54.4631587" lon="-2.9757877"><ele>679.2</ele></trkpt>
<trkpt lat="54.4630729" lon="-2.9757415"><ele>679.0</ele></trkpt>
<trkpt lat="54.4629858" lon="-2.9757035"><ele>678.9</ele></trkpt>
<trkpt lat="54.4628977" lon="-2.9756725"><ele>679.0</ele></trkpt>
<trkpt lat="54.4628091" lon="-2.9756458"><ele>679.3</ele></trkpt>
<trkpt lat="54.4627204" lon="-2.9756197"><ele>679.8</ele></trkpt>
<trkpt lat="54.4626317" lon="-2.9755946"><ele>680.4</ele></trkpt>
<trkpt lat="54.4625434" lon="-2.9755655"><ele>681.2</ele></trkpt>
<trkpt lat="54.4624560" lon="-2.9755291"><ele>682.0</ele></trkpt>
<trkpt lat="54.4623704" lon="-2.9754820"><ele>682.7</ele></trkpt>
<trkpt lat="54.4622866" lon="-2.9754258"><ele>683.4</ele></trkpt>
<trkpt lat="54.4622045" lon="-2.9753628"><ele>684.0</ele></trkpt>
<trkpt lat="54.4621225" lon="-2.9752990"><ele>684.6</ele></trkpt>
<trkpt lat="54.4620400" lon="-2.9752375"><ele>685.4</ele></trkpt>
<trkpt lat="54.4619561" lon="-2.9751817"><ele>686.4</ele></trkpt>
<trkpt lat="54.4618720" lon="-2.9751272"><ele>687.5</ele></trkpt>
<trkpt lat="54.4617880" lon="-2.9750720"><ele>688.8</ele></trkpt>
<trkpt lat="54.4617039" lon="-2.9750171"><ele>690.1</ele></trkpt>
<trkpt lat="54.4616186" lon="-2.9749681"><ele>691.7</ele></trkpt>
<trkpt lat="54.4615317" lon="-2.9749287"><ele>693.4</ele></trkpt>
<trkpt lat="54.4614431" lon="-2.9749023"><ele>695.4</ele></trkpt>
<trkpt lat="54.4613536" lon="-2.9748885"><ele>697.5</ele></trkpt>
<trkpt lat="54.4612637" lon="-2.9748839"><ele>699.8</ele></trkpt>
<trkpt lat="54.4611738" lon="-2.9748844"><ele>702.0</ele></trkpt>
<trkpt lat="54.4610838" lon="-2.9748851"><ele>704.1</ele></trkpt>
<trkpt lat="54.4609939" lon="-2.9748864"><ele>706.1</ele></trkpt>
<trkpt lat="54.4609040" lon="-2.9748865"><ele>707.8</ele></trkpt>
<trkpt lat="54.4608141" lon="-2.9748827"><ele>709.3</ele></trkpt>
<trkpt lat="54.4607243" lon="-2.9748724"><ele>710.3</ele></trkpt>
<trkpt lat="54.4606348" lon="-2.9748576"><ele>711.1</ele></trkpt>
<trkpt lat="54.4605455" lon="-2.9748404"><ele>711.5</ele></trkpt>
<trkpt lat="54.4604559" lon="-2.9748258"><ele>711.7</ele></trkpt>
<trkpt lat="54.4603662" lon="-2.9748161"><ele>711.8</ele></trkpt>
<trkpt lat="54.4602763" lon="-2.9748157"><ele>712.0</ele></trkpt>
<trkpt lat="54.4601865" lon="-2.9748248"><ele>712.2</ele></trkpt>
<trkpt lat="54.4600972" lon="-2.9748427"><ele>712.4</ele></trkpt>
<trkpt lat="54.4600081" lon="-2.9748634"><ele>712.5</ele></trkpt>
<trkpt lat="54.4599188" lon="-2.9748820"><ele>712.4</ele></trkpt>
<trkpt lat="54.4598292" lon="-2.9748941"><ele>711.9</ele></trkpt>
<trkpt lat="54.4597393" lon="-2.9749007"><ele>711.1</ele></trkpt>
<trkpt lat="54.4596494" lon="-2.9749019"><ele>709.9</ele></trkpt>
<trkpt lat="54.4595595" lon="-2.9749026"><ele>708.5</ele></trkpt>
<trkpt lat="54.4594695" lon="-2.9749052"><ele>707.0</ele></trkpt>
<trkpt lat="54.4593798" lon="-2.9749140"><ele>705.4</ele></trkpt>
<trkpt lat="54.4592903" lon="-2.9749293"><ele>703.9</ele></trkpt>
<trkpt lat="54.4592013" lon="-2.9749516"><ele>702.5</ele></trkpt>
<trkpt lat="54.4591125" lon="-2.9749757"><ele>701.1</ele></trkpt>
<trkpt lat="54.4590238" lon="-2.9750020"><ele>699.6</ele></trkpt>
<trkpt lat="54.4589355" lon="-2.9750305"><ele>698.3</ele></trkpt>
<trkpt lat="54.4588471" lon="-2.9750589"><ele>696.9</ele></trkpt>
<trkpt lat="54.4587579" lon="-2.9750787"><ele>695.5</ele></trkpt>
<trkpt lat="54.4586681" lon="-2.9750853"><ele>694.0</ele></trkpt>
<trkpt lat="54.4585784" lon="-2.9750750"><ele>692.5</ele></trkpt>
<trkpt lat="54.4584897" lon="-2.9750503"><ele>690.9</ele></trkpt>
<trkpt lat="54.4584020" lon="-2.9750161"><ele>689.4</ele></trkpt>
<trkpt lat="54.4583147" lon="-2.9749785"><ele>687.9</ele></trkpt>
<trkpt lat="54.4582274" lon="-2.9749414"><ele>686.4</ele></trkpt>
<trkpt lat="54.4581399" lon="-2.9749056"><ele>684.9</ele></trkpt>
<trkpt lat="54.4580518" lon="-2.9748748"><ele>683.4</ele></trkpt>
<trkpt lat="54.4579627" lon="-2.9748539"><ele>682.0</ele></trkpt>
<trkpt lat="54.4578730" lon="-2.9748441"><ele>680.6</ele></trkpt>
<trkpt lat="54.4577831" lon="-2.9748447"><ele>679.3</ele></trkpt>
<trkpt lat="54.4576932" lon="-2.9748510"><ele>678.0</ele></trkpt>
<trkpt lat="54.4576034" lon="-2.9748585"><ele>676.8</ele></trkpt>
<trkpt lat="54.4575135" lon="-2.9748613"><ele>675.6</ele></trkpt>
<trkpt lat="54.4574236" lon="-2.9748569"><ele>674.3</ele></trkpt>
<trkpt lat="54.4573340" lon="-2.9748439"><ele>672.9</ele></trkpt>
<trkpt lat="54.4572446" lon="-2.9748276"><ele>671.4</ele></trkpt>
<trkpt lat="54.4571553" lon="-2.9748095"><ele>669.7</ele></trkpt>
<trkpt lat="54.4570661" lon="-2.9747897"><ele>667.8</ele></trkpt>
<trkpt lat="54.4569769" lon="-2.9747701"><ele>665.7</ele></trkpt>
<trkpt lat="54.4568873" lon="-2.9747570"><ele>663.4</ele></trkpt>
<trkpt lat="54.4567974" lon="-2.9747538"><ele>660.8</ele></trkpt>
<trkpt lat="54.4567077" lon="-2.9747650"><ele>658.0</ele></trkpt>
<trkpt lat="54.4566189" lon="-2.9747892"><ele>655.0</ele></trkpt>
<trkpt lat="54.4565314" lon="-2.9748246"><ele>652.0</ele></trkpt>
<trkpt lat="54.4564447" lon="-2.9748656"><ele>648.8</ele></trkpt>
<trkpt lat="54.4563584" lon="-2.9749094"><ele>645.6</ele></trkpt>
<trkpt lat="54.4562724" lon="-2.9749544"><ele>642.3</ele></trkpt>
<trkpt lat="54.4561864" lon="-2.9749997"><ele>639.0</ele></trkpt>
<trkpt lat="54.4560997" lon="-2.9750404"><ele>635.6</ele></trkpt>
<trkpt lat="54.4560123" lon="-2.9750771"><ele>632.3</ele></trkpt>
<trkpt lat="54.4559244" lon="-2.9751101"><ele>629.0</ele></trkpt>
<trkpt lat="54.4558367" lon="-2.9751437"><ele>625.8</ele></trkpt>
<trkpt lat="54.4557493" lon="-2.9751802"><ele>622.6</ele></trkpt>
<trkpt lat="54.4556631" lon="-2.9752244"><ele>619.7</ele></trkpt>
<trkpt lat="54.4555785" lon="-2.9752767"><ele>617.0</ele></trkpt>
<trkpt lat="54.4554961" lon="-2.9753388"><ele>614.6</ele></trkpt>
<trkpt lat="54.4554152" lon="-2.9754063"><ele>612.4</ele></trkpt>
<trkpt lat="54.4553346" lon="-2.9754748"><ele>610.2</ele></trkpt>
<trkpt lat="54.4552522" lon="-2.9755366"><ele>608.1</ele></trkpt>
<trkpt lat="54.4551679" lon="-2.9755907"><ele>606.0</ele></trkpt>
<trkpt lat="54.4550821" lon="-2.9756371"><ele>603.9</ele></trkpt>
<trkpt lat="54.4549957" lon="-2.9756800"><ele>601.8</ele></trkpt>
<trkpt lat="54.4549093" lon="-2.9757229"><ele>599.9</ele></trkpt>
<trkpt lat="54.4548237" lon="-2.9757702"><ele>598.1</ele></trkpt>
<trkpt lat="54.4547394" lon="-2.9758238"><ele>596.4</ele></trkpt>
<trkpt lat="54.4546569" lon="-2.9758853"><ele>595.0</ele></trkpt>
<trkpt lat="54.4545757" lon="-2.9759520"><ele>593.8</ele></trkpt>
<trkpt lat="54.4544953" lon="-2.9760212"><ele>592.8</ele></trkpt>
<trkpt lat="54.4544144" lon="-2.9760887"><ele>591.8</ele></trkpt>
<trkpt lat="54.4543328" lon="-2.9761538"><ele>591.0</ele></trkpt>
<trkpt lat="54.4542496" lon="-2.9762125"><ele>590.2</ele></trkpt>
<trkpt lat="54.4541649" lon="-2.9762640"><ele>589.5</ele></trkpt>
<trkpt lat="54.4540785" lon="-2.9763070"><ele>588.7</ele></trkpt>
<trkpt lat="54.4539913" lon="-2.9763448"><ele>588.0</ele></trkpt>
<trkpt lat="54.4539037" lon="-2.9763797"><ele>587.2</ele></trkpt>
<trkpt lat="54.4538164" lon="-2.9764168"><ele>586.6</ele></trkpt>
<trkpt lat="54.4537298" lon="-2.9764584"><ele>586.0</ele></trkpt>
<trkpt lat="54.4536444" lon="-2.9765070"><ele>585.7</ele></trkpt>
<trkpt lat="54.4535594" lon="-2.9765575"><ele>585.4</ele></trkpt>
<trkpt lat="54.4534746" lon="-2.9766090"><ele>585.3</ele></trkpt>
<trkpt lat="54.4533896" lon="-2.9766597"><ele>585.1</ele></trkpt>
<trkpt lat="54.4533049" lon="-2.9767115"><ele>584.9</ele></trkpt>
<trkpt lat="54.4532203" lon="-2.9767643"><ele>584.7</ele></trkpt>
<trkpt lat="54.4531365" lon="-2.9768204"><ele>584.5</ele></trkpt>
<trkpt lat="54.4530538" lon="-2.9768810"><ele>584.3</ele></trkpt>
<trkpt lat="54.4529724" lon="-2.9769468"><ele>584.1</ele></trkpt>
<trkpt lat="54.4528931" lon="-2.9770196"><ele>583.9</ele></trkpt>
<trkpt lat="54.4528157" lon="-2.9770983"><ele>583.7</ele></trkpt>
<trkpt lat="54.4527404" lon="-2.9771828"><ele>583.4</ele></trkpt>
<trkpt lat="54.4526662" lon="-2.9772702"><ele>583.1</ele></trkpt>
<trkpt lat="54.4525923" lon="-2.9773585"><ele>582.8</ele></trkpt>
<trkpt lat="54.4525190" lon="-2.9774481"><ele>582.3</ele></trkpt>
<trkpt lat="54.4524470" lon="-2.9775408"><ele>581.9</ele></trkpt>
<trkpt lat="54.4523777" lon="-2.9776394"><ele>581.5</ele></trkpt>
<trkpt lat="54.4523116" lon="-2.9777441"><ele>581.3</ele></trkpt>
<trkpt lat="54.4522496" lon="-2.9778561"><ele>581.2</ele></trkpt>
<trkpt lat="54.4521907" lon="-2.9779730"><ele>581.2</ele></trkpt>
<trkpt lat="54.4521348" lon="-2.9780941"><ele>581.5</ele></trkpt>
<trkpt lat="54.4520803" lon="-2.9782172"><ele>581.8</ele></trkpt>
<trkpt lat="54.4520264" lon="-2.9783410"><ele>582.2</ele></trkpt>
<trkpt lat="54.4519739" lon="-2.9784666"><ele>582.8</ele></trkpt>
<trkpt lat="54.4519229" lon="-2.9785940"><ele>583.4</ele></trkpt>
<trkpt lat="54.4518723" lon="-2.9787219"><ele>584.2</ele></trkpt>
<trkpt lat="54.4518196" lon="-2.9788472"><ele>584.9</ele></trkpt>
<trkpt lat="54.4517632" lon="-2.9789677"><ele>585.5</ele></trkpt>
<trkpt lat="54.4517015" lon="-2.9790801"><ele>586.0</ele></trkpt>
<trkpt lat="54.4516350" lon="-2.9791841"><ele>586.2</ele></trkpt>
<trkpt lat="54.4515648" lon="-2.9792808"><ele>586.2</ele></trkpt>
<trkpt lat="54.4514930" lon="-2.9793740"><ele>586.0</ele></trkpt>
<trkpt lat="54.4514215" lon="-2.9794679"><ele>585.8</ele></trkpt>
<trkpt lat="54.4513504" lon="-2.9795625"><ele>585.5</ele></trkpt>
<trkpt lat="54.4512794" lon="-2.9796573"><ele>585.2</ele></trkpt>
<trkpt lat="54.4512081" lon="-2.9797517"><ele>584.8</ele></trkpt>
<trkpt lat="54.4511376" lon="-2.9798477"><ele>584.5</ele></trkpt>
<trkpt lat="54.4510679" lon="-2.9799455"><ele>584.1</ele></trkpt>
<trkpt lat="54.4509995" lon="-2.9800458"><ele>583.7</ele></trkpt>
<trkpt lat="54.4509315" lon="-2.9801471"><ele>583.4</ele></trkpt>
<trkpt lat="54.4508631" lon="-2.9802475"><ele>583.1</ele></trkpt>
<trkpt lat="54.4507932" lon="-2.9803449"><ele>582.7</ele></trkpt>
<trkpt lat="54.4507209" lon="-2.9804369"><ele>582.3</ele></trkpt>
<trkpt lat="54.4506468" lon="-2.9805244"><ele>581.9</ele></trkpt>
<trkpt lat="54.4505724" lon="-2.9806114"><ele>581.5</ele></trkpt>
<trkpt lat="54.4504999" lon="-2.9807028"><ele>581.1</ele></trkpt>
<trkpt lat="54.4504287" lon="-2.9807973"><ele>580.8</ele></trkpt>
<trkpt lat="54.4503574" lon="-2.9808915"><ele>580.4</ele></trkpt>
<trkpt lat="54.4502842" lon="-2.9809815"><ele>580.0</ele></trkpt>
<trkpt lat="54.4502080" lon="-2.9810634"><ele>579.5</ele></trkpt>
<trkpt lat="54.4501289" lon="-2.9811368"><ele>578.9</ele></trkpt>
<trkpt lat="54.4500472" lon="-2.9812017"><ele>578.2</ele></trkpt>
<trkpt lat="54.4499643" lon="-2.9812616"><ele>577.4</ele></trkpt>
<trkpt lat="54.4498809" lon="-2.9813194"><ele>576.5</ele></trkpt>
<trkpt lat="54.4497976" lon="-2.9813777"><ele>575.4</ele></trkpt>
<trkpt lat="54.4497144" lon="-2.9814363"><ele>574.3</ele></trkpt>
<trkpt lat="54.4496316" lon="-2.9814969"><ele>573.0</ele></trkpt>
<trkpt lat="54.4495508" lon="-2.9815647"><ele>571.7</ele></trkpt>
<trkpt lat="54.4494735" lon="-2.9816435"><ele>570.4</ele></trkpt>
<trkpt lat="54.4494017" lon="-2.9817364"><ele>569.1</ele></trkpt>
<trkpt lat="54.4493360" lon="-2.9818420"><ele>567.9</ele></trkpt>
<trkpt lat="54.4492756" lon="-2.9819564"><ele>566.8</ele></trkpt>
<trkpt lat="54.4492181" lon="-2.9820755"><ele>565.7</ele></trkpt>
<trkpt lat="54.4491608" lon="-2.9821946"><ele>564.6</ele></trkpt>
<trkpt lat="54.4491033" lon="-2.9823136"><ele>563.5</ele></trkpt>
<trkpt lat="54.4490467" lon="-2.9824338"><ele>562.4</ele></trkpt>
<trkpt lat="54.4489906" lon="-2.9825547"><ele>561.4</ele></trkpt>
<trkpt lat="54.4489334" lon="-2.9826740"><ele>560.5</ele></trkpt>
<trkpt lat="54.4488739" lon="-2.9827900"><ele>559.6</ele></trkpt>
<trkpt lat="54.4488117" lon="-2.9829017"><ele>558.7</ele></trkpt>
<trkpt lat="54.4487471" lon="-2.9830093"><ele>557.8</ele></trkpt>
<trkpt lat="54.4486815" lon="-2.9831151"><ele>557.0</ele></trkpt>
<trkpt lat="54.4486160" lon="-2.9832211"><ele>556.2</ele></trkpt>
<trkpt lat="54.4485525" lon="-2.9833305"><ele>555.6</ele></trkpt>
<trkpt lat="54.4484908" lon="-2.9834431"><ele>555.0</ele></trkpt>
<trkpt lat="54.4484296" lon="-2.9835565"><ele>554.4</ele></trkpt>
<trkpt lat="54.4483666" lon="-2.9836669"><ele>553.7</ele></trkpt>
<trkpt lat="54.4483015" lon="-2.9837735"><ele>552.9</ele></trkpt>
<trkpt lat="54.4482352" lon="-2.9838780"><ele>552.0</ele></trkpt>
<trkpt lat="54.4481688" lon="-2.9839823"><ele>551.0</ele></trkpt>
<trkpt lat="54.4481036" lon="-2.9840888"><ele>549.8</ele></trkpt>
<trkpt lat="54.4480398" lon="-2.9841980"><ele>548.6</ele></trkpt>
<trkpt lat="54.4479780" lon="-2.9843102"><ele>547.4</ele></trkpt>
<trkpt lat="54.4479170" lon="-2.9844239"><ele>546.1</ele></trkpt>
<trkpt lat="54.4478563" lon="-2.9845380"><ele>544.7</ele></trkpt>
<trkpt lat="54.4477952" lon="-2.9846515"><ele>543.3</ele></trkpt>
<trkpt lat="54.4477326" lon="-2.9847626"><ele>541.7</ele></trkpt>
<trkpt lat="54.4476665" lon="-2.9848674"><ele>540.0</ele></trkpt>
<trkpt lat="54.4475964" lon="-2.9849643"><ele>538.1</ele></trkpt>
<trkpt lat="54.4475240" lon="-2.9850558"><ele>536.0</ele></trkpt>
<trkpt lat="54.4474506" lon="-2.9851453"><ele>533.8</ele></trkpt>
<trkpt lat="54.4473785" lon="-2.9852378"><ele>531.6</ele></trkpt>
<trkpt lat="54.4473094" lon="-2.9853368"><ele>529.6</ele></trkpt>
<trkpt lat="54.4472454" lon="-2.9854454"><ele>527.9</ele></trkpt>
<trkpt lat="54.4471873" lon="-2.9855634"><ele>526.4</ele></trkpt>
<trkpt lat="54.4471343" lon="-2.9856883"><ele>525.2</ele></trkpt>
<trkpt lat="54.4470847" lon="-2.9858173"><ele>524.1</ele></trkpt>
<trkpt lat="54.4470383" lon="-2.9859498"><ele>523.3</ele></trkpt>
<trkpt lat="54.4469951" lon="-2.9860854"><ele>522.7</ele></trkpt>
<trkpt lat="54.4469518" lon="-2.9862210"><ele>522.3</ele></trkpt>
<trkpt lat="54.4469054" lon="-2.9863535"><ele>521.9</ele></trkpt>
<trkpt lat="54.4468534" lon="-2.9864796"><ele>521.6</ele></trkpt>
<trkpt lat="54.4467958" lon="-2.9865984"><ele>521.2</ele></trkpt>
<trkpt lat="54.4467341" lon="-2.9867109"><ele>520.9</ele></trkpt>
<trkpt lat="54.4466712" lon="-2.9868213"><ele>520.7</ele></trkpt>
<trkpt lat="54.4466096" lon="-2.9869340"><ele>520.9</ele></trkpt>
<trkpt lat="54.4465500" lon="-2.9870499"><ele>521.3</ele></trkpt>
<trkpt lat="54.4464918" lon="-2.9871679"><ele>522.0</ele></trkpt>
<trkpt lat="54.4464363" lon="-2.9872894"><ele>522.8</ele></trkpt>
<trkpt lat="54.4463849" lon="-2.9874163"><ele>523.9</ele></trkpt>
<trkpt lat="54.4463370" lon="-2.9875472"><ele>525.1</ele></trkpt>
<trkpt lat="54.4462919" lon="-2.9876810"><ele>526.4</ele></trkpt>
<trkpt lat="54.4462469" lon="-2.9878150"><ele>527.5</ele></trkpt>
<trkpt lat="54.4462003" lon="-2.9879472"><ele>528.5</ele></trkpt>
<trkpt lat="54.4461490" lon="-2.9880743"><ele>529.2</ele></trkpt>
<trkpt lat="54.4460927" lon="-2.9881948"><ele>529.7</ele></trkpt>
<trkpt lat="54.4460317" lon="-2.9883084"><ele>530.0</ele></trkpt>
<trkpt lat="54.4459689" lon="-2.9884191"><ele>530.1</ele></trkpt>
<trkpt lat="54.4459080" lon="-2.9885329"><ele>530.2</ele></trkpt>
<trkpt lat="54.4458510" lon="-2.9886525"><ele>530.3</ele></trkpt>
<trkpt lat="54.4457983" lon="-2.9887778"><ele>530.5</ele></trkpt>
<trkpt lat="54.4457480" lon="-2.9889061"><ele>530.7</ele></trkpt>
<trkpt lat="54.4456982" lon="-2.9890349"><ele>531.0</ele></trkpt>
<trkpt lat="54.4456459" lon="-2.9891607"><ele>531.2</ele></trkpt>
<trkpt lat="54.4455898" lon="-2.9892815"><ele>531.5</ele></trkpt>
<trkpt lat="54.4455289" lon="-2.9893953"><ele>531.7</ele></trkpt>
<trkpt lat="54.4454645" lon="-2.9895033"><ele>532.0</ele></trkpt>
<trkpt lat="54.4453983" lon="-2.9896080"><ele>532.2</ele></trkpt>
<trkpt lat="54.4453321" lon="-2.9897126"><ele>532.6</ele></trkpt>
<trkpt lat="54.4452660" lon="-2.9898176"><ele>533.0</ele></trkpt>
<trkpt lat="54.4452016" lon="-2.9899255"><ele>533.6</ele></trkpt>
<trkpt lat="54.4451414" lon="-2.9900404"><ele>534.3</ele></trkpt>
<trkpt lat="54.4450876" lon="-2.9901641"><ele>535.3</ele></trkpt>
<trkpt lat="54.4450418" lon="-2.9902971"><ele>536.4</ele></trkpt>
<trkpt lat="54.4450031" lon="-2.9904367"><ele>537.7</ele></trkpt>
<trkpt lat="54.4449690" lon="-2.9905798"><ele>539.1</ele></trkpt>
<trkpt lat="54.4449364" lon="-2.9907240"><ele>540.4</ele></trkpt>
<trkpt lat="54.4449025" lon="-2.9908673"><ele>541.6</ele></trkpt>
<trkpt lat="54.4448686" lon="-2.9910105"><ele>542.7</ele></trkpt>
<trkpt lat="54.4448371" lon="-2.9911554"><ele>543.8</ele></trkpt>
<trkpt lat="54.4448083" lon="-2.9913019"><ele>544.7</ele></trkpt>
<trkpt lat="54.4447796" lon="-2.9914485"><ele>545.4</ele></trkpt>
<trkpt lat="54.4447481" lon="-2.9915933"><ele>546.0</ele></trkpt>
<trkpt lat="54.4447114" lon="-2.9917345"><ele>546.3</ele></trkpt>
<trkpt lat="54.4446687" lon="-2.9918706"><ele>546.4</ele></trkpt>
<trkpt lat="54.4446211" lon="-2.9920018"><ele>546.4</ele></trkpt>
<trkpt lat="54.4445703" lon="-2.9921294"><ele>546.1</ele></trkpt>
<trkpt lat="54.4445190" lon="-2.9922565"><ele>545.9</ele></trkpt>
<trkpt lat="54.4444680" lon="-2.9923838"><ele>545.6</ele></trkpt>
<trkpt lat="54.4444161" lon="-2.9925102"><ele>545.3</ele></trkpt>
<trkpt lat="54.4443616" lon="-2.9926333"><ele>545.0</ele></trkpt>
<trkpt lat="54.4443060" lon="-2.9927548"><ele>544.7</ele></trkpt>
<trkpt lat="54.4442513" lon="-2.9928776"><ele>544.4</ele></trkpt>
<trkpt lat="54.4441997" lon="-2.9930042"><ele>544.3</ele></trkpt>
<trkpt lat="54.4441528" lon="-2.9931361"><ele>544.2</ele></trkpt>
<trkpt lat="54.4441103" lon="-2.9932725"><ele>544.3</ele></trkpt>
<trkpt lat="54.4440714" lon="-2.9934119"><ele>544.4</ele></trkpt>
<trkpt lat="54.4440333" lon="-2.9935520"><ele>544.5</ele></trkpt>
<trkpt lat="54.4439941" lon="-2.9936913"><ele>544.6</ele></trkpt>
<trkpt lat="54.4439543" lon="-2.9938299"><ele>544.7</ele></trkpt>
<trkpt lat="54.4439156" lon="-2.9939696"><ele>544.8</ele></trkpt>
<trkpt lat="54.4438786" lon="-2.9941105"><ele>544.8</ele></trkpt>
<trkpt lat="54.4438406" lon="-2.9942507"><ele>544.8</ele></trkpt>
<trkpt lat="54.4437999" lon="-2.9943887"><ele>544.6</ele></trkpt>
<trkpt lat="54.4437550" lon="-2.9945226"><ele>544.3</ele></trkpt>
<trkpt lat="54.4437064" lon="-2.9946527"><ele>543.8</ele></trkpt>
<trkpt lat="54.4436556" lon="-2.9947803"><ele>543.1</ele></trkpt>
<trkpt lat="54.4436049" lon="-2.9949082"><ele>542.4</ele></trkpt>
<trkpt lat="54.4435571" lon="-2.9950392"><ele>541.7</ele></trkpt>
<trkpt lat="54.4435129" lon="-2.9951738"><ele>541.0</ele></trkpt>
<trkpt lat="54.4434713" lon="-2.9953110"><ele>540.3</ele></trkpt>
<trkpt lat="54.4434318" lon="-2.9954499"><ele>539.5</ele></trkpt>
<trkpt lat="54.4433957" lon="-2.9955916"><ele>538.7</ele></trkpt>
<trkpt lat="54.4433641" lon="-2.9957364"><ele>537.9</ele></trkpt>
<trkpt lat="54.4433373" lon="-2.9958840"><ele>537.2</ele></trkpt>
<trkpt lat="54.4433151" lon="-2.9960338"><ele>536.5</ele></trkpt>
<trkpt lat="54.4432957" lon="-2.9961849"><ele>535.9</ele></trkpt>
<trkpt lat="54.4432773" lon="-2.9963363"><ele>535.3</ele></trkpt>
<trkpt lat="54.4432579" lon="-2.9964873"><ele>534.7</ele></trkpt>
<trkpt lat="54.4432363" lon="-2.9966374"><ele>534.2</ele></trkpt>
<trkpt lat="54.4432137" lon="-2.9967872"><ele>533.7</ele></trkpt>
<trkpt lat="54.4431905" lon="-2.9969366"><ele>533.2</ele></trkpt>
<trkpt lat="54.4431662" lon="-2.9970855"><ele>532.7</ele></trkpt>
<trkpt lat="54.4431409" lon="-2.9972339"><ele>532.2</ele></trkpt>
<trkpt lat="54.4431165" lon="-2.9973828"><ele>531.7</ele></trkpt>
<trkpt lat="54.4430946" lon="-2.9975328"><ele>531.2</ele></trkpt>
<trkpt lat="54.4430762" lon="-2.9976842"><ele>530.8</ele></trkpt>
<trkpt lat="54.4430618" lon="-2.9978369"><ele>530.5</ele></trkpt>
<trkpt lat="54.4430501" lon="-2.9979903"><ele>530.1</ele></trkpt>
<trkpt lat="54.4430404" lon="-2.9981440"><ele>529.8</ele></trkpt>
<trkpt lat="54.4430306" lon="-2.9982978"><ele>529.5</ele></trkpt>
<trkpt lat="54.4430197" lon="-2.9984513"><ele>529.2</ele></trkpt>
<trkpt lat="54.4430050" lon="-2.9986039"><ele>528.7</ele></trkpt>
<trkpt lat="54.4429842" lon="-2.9987543"><ele>528.2</ele></trkpt>
<trkpt lat="54.4429574" lon="-2.9989019"><ele>527.5</ele></trkpt>
<trkpt lat="54.4429252" lon="-2.9990463"><ele>526.8</ele></trkpt>
<trkpt lat="54.4428899" lon="-2.9991886"><ele>526.1</ele></trkpt>
<trkpt lat="54.4428535" lon="-2.9993301"><ele>525.4</ele></trkpt>
<trkpt lat="54.4428182" lon="-2.9994723"><ele>524.7</ele></trkpt>
<trkpt lat="54.4427852" lon="-2.9996162"><ele>524.1</ele></trkpt>
<trkpt lat="54.4427543" lon="-2.9997614"><ele>523.6</ele></trkpt>
<trkpt lat="54.4427242" lon="-2.9999072"><ele>523.1</ele></trkpt>
<trkpt lat="54.4426936" lon="-3.0000527"><ele>522.6</ele></trkpt>
<trkpt lat="54.4426634" lon="-3.0001983"><ele>522.1</ele></trkpt>
<trkpt lat="54.4426315" lon="-3.0003429"><ele>521.5</ele></trkpt>
<trkpt lat="54.4425954" lon="-3.0004846"><ele>520.9</ele></trkpt>
<trkpt lat="54.4425540" lon="-3.0006219"><ele>520.4</ele></trkpt>
<trkpt lat="54.4425071" lon="-3.0007538"><ele>520.0</ele></trkpt>
<trkpt lat="54.4424564" lon="-3.0008815"><ele>519.7</ele></trkpt>
<trkpt lat="54.4424039" lon="-3.0010071"><ele>519.5</ele></trkpt>
<trkpt lat="54.4423520" lon="-3.0011335"><ele>519.4</ele></trkpt>
<trkpt lat="54.4423021" lon="-3.0012621"><ele>519.4</ele></trkpt>
<trkpt lat="54.4422540" lon="-3.0013928"><ele>519.4</ele></trkpt>
<trkpt lat="54.4422088" lon="-3.0015265"><ele>519.4</ele></trkpt>
<trkpt lat="54.4421680" lon="-3.0016643"><ele>519.4</ele></trkpt>
<trkpt lat="54.4421319" lon="-3.0018060"><ele>519.3</ele></trkpt>
<trkpt lat="54.4420992" lon="-3.0019500"><ele>519.1</ele></trkpt>
<trkpt lat="54.4420680" lon="-3.0020951"><ele>518.9</ele></trkpt>
<trkpt lat="54.4420360" lon="-3.0022397"><ele>518.5</ele></trkpt>
<trkpt lat="54.4420012" lon="-3.0023823"><ele>518.1</ele></trkpt>
<trkpt lat="54.4419628" lon="-3.0025221"><ele>517.5</ele></trkpt>
<trkpt lat="54.4419208" lon="-3.0026588"><ele>516.8</ele></trkpt>
<trkpt lat="54.4418771" lon="-3.0027941"><ele>516.0</ele></trkpt>
<trkpt lat="54.4418332" lon="-3.0029291"><ele>515.1</ele></trkpt>
<trkpt lat="54.4417896" lon="-3.0030644"><ele>514.0</ele></trkpt>
<trkpt lat="54.4417477" lon="-3.0032012"><ele>512.9</ele></trkpt>
<trkpt lat="54.4417102" lon="-3.0033418"><ele>511.8</ele></trkpt>
<trkpt lat="54.4416793" lon="-3.0034869"><ele>510.6</ele></trkpt>
<trkpt lat="54.4416557" lon="-3.0036362"><ele>509.5</ele></trkpt>
<trkpt lat="54.4416390" lon="-3.0037881"><ele>508.6</ele></trkpt>
<trkpt lat="54.4416263" lon="-3.0039412"><ele>507.7</ele></trkpt>
<trkpt lat="54.4416149" lon="-3.0040947"><ele>507.0</ele></trkpt>
<trkpt lat="54.4416026" lon="-3.0042479"><ele>506.4</ele></trkpt>
<trkpt lat="54.4415898" lon="-3.0044010"><ele>505.9</ele></trkpt>
<trkpt lat="54.4415751" lon="-3.0045536"><ele>505.5</ele></trkpt>
<trkpt lat="54.4415555" lon="-3.0047045"><ele>505.3</ele></trkpt>
<trkpt lat="54.4415313" lon="-3.0048534"><ele>505.2</ele></trkpt>
<trkpt lat="54.4415041" lon="-3.0050008"><ele>505.2</ele></trkpt>
<trkpt lat="54.4414768" lon="-3.0051483"><ele>505.4</ele></trkpt>
<trkpt lat="54.4414522" lon="-3.0052970"><ele>505.9</ele></trkpt>
<trkpt lat="54.4414326" lon="-3.0054480"><ele>506.6</ele></trkpt>
<trkpt lat="54.4414194" lon="-3.0056009"><ele>507.6</ele></trkpt>
<trkpt lat="54.4414116" lon="-3.0057550"><ele>508.8</ele></trkpt>
<trkpt lat="54.4414071" lon="-3.0059095"><ele>510.1</ele></trkpt>
<trkpt lat="54.4414014" lon="-3.0060638"><ele>511.4</ele></trkpt>
<trkpt lat="54.4413910" lon="-3.0062174"><ele>512.7</ele></trkpt>
<trkpt lat="54.4413736" lon="-3.0063691"><ele>513.8</ele></trkpt>
<trkpt lat="54.4413496" lon="-3.0065181"><ele>514.8</ele></trkpt>
<trkpt lat="54.4413204" lon="-3.0066644"><ele>515.6</ele></trkpt>
<trkpt lat="54.4412892" lon="-3.0068095"><ele>516.4</ele></trkpt>
<trkpt lat="54.4412589" lon="-3.0069551"><ele>517.1</ele></trkpt>
<trkpt lat="54.4412328" lon="-3.0071031"><ele>517.9</ele></trkpt>
<trkpt lat="54.4412130" lon="-3.0072540"><ele>518.9</ele></trkpt>
<trkpt lat="54.4411989" lon="-3.0074067"><ele>520.0</ele></trkpt>
<trkpt lat="54.4411874" lon="-3.0075601"><ele>521.1</ele></trkpt>
<trkpt lat="54.4411759" lon="-3.0077135"><ele>522.3</ele></trkpt>
<trkpt lat="54.4411641" lon="-3.0078669"><ele>523.4</ele></trkpt>
<trkpt lat="54.4411504" lon="-3.0080197"><ele>524.5</ele></trkpt>
<trkpt lat="54.4411340" lon="-3.0081718"><ele>525.5</ele></trkpt>
<trkpt lat="54.4411146" lon="-3.0083228"><ele>526.4</ele></trkpt>
<trkpt lat="54.4410928" lon="-3.0084729"><ele>527.1</ele></trkpt>
<trkpt lat="54.4410701" lon="-3.0086226"><ele>527.8</ele></trkpt>
<trkpt lat="54.4410484" lon="-3.0087727"><ele>528.3</ele></trkpt>
<trkpt lat="54.4410294" lon="-3.0089239"><ele>528.8</ele></trkpt>
<trkpt lat="54.4410130" lon="-3.0090759"><ele>529.2</ele></trkpt>
<trkpt lat="54.4409980" lon="-3.0092285"><ele>529.5</ele></trkpt>
<trkpt lat="54.4409832" lon="-3.0093810"><ele>529.7</ele></trkpt>
<trkpt lat="54.4409687" lon="-3.0095337"><ele>529.8</ele></trkpt>
<trkpt lat="54.4409544" lon="-3.0096864"><ele>529.7</ele></trkpt>
<trkpt lat="54.4409409" lon="-3.0098393"><ele>529.5</ele></trkpt>
<trkpt lat="54.4409289" lon="-3.0099926"><ele>529.2</ele></trkpt>
<trkpt lat="54.4409187" lon="-3.0101463"><ele>528.8</ele></trkpt>
<trkpt lat="54.4409111" lon="-3.0103004"><ele>528.5</ele></trkpt>
<trkpt lat="54.4409057" lon="-3.0104548"><ele>528.0</ele></trkpt>
<trkpt lat="54.4409026" lon="-3.0106094"><ele>527.6</ele></trkpt>
<trkpt lat="54.4409006" lon="-3.0107640"><ele>527.2</ele></trkpt>
<trkpt lat="54.4408979" lon="-3.0109186"><ele>526.7</ele></trkpt>
<trkpt lat="54.4408941" lon="-3.0110732"><ele>526.2</ele></trkpt>
<trkpt lat="54.4408901" lon="-3.0112277"><ele>525.7</ele></trkpt>
<trkpt lat="54.4408877" lon="-3.0113823"><ele>525.3</ele></trkpt>
<trkpt lat="54.4408879" lon="-3.0115370"><ele>525.0</ele></trkpt>
<trkpt lat="54.4408916" lon="-3.0116915"><ele>524.9</ele></trkpt>
<trkpt lat="54.4408981" lon="-3.0118458"><ele>524.8</ele></trkpt>
<trkpt lat="54.4409067" lon="-3.0119998"><ele>525.0</ele></trkpt>
<trkpt lat="54.4409158" lon="-3.0121536"><ele>525.2</ele></trkpt>
<trkpt lat="54.4409246" lon="-3.0123076"><ele>525.6</ele></trkpt>
<trkpt lat="54.4409324" lon="-3.0124617"><ele>526.1</ele></trkpt>
<trkpt lat="54.4409365" lon="-3.0126162"><ele>526.6</ele></trkpt>
<trkpt lat="54.4409362" lon="-3.0127708"><ele>527.2</ele></trkpt>
<trkpt lat="54.4409318" lon="-3.0129253"><ele>527.7</ele></trkpt>
<trkpt lat="54.4409252" lon="-3.0130796"><ele>528.3</ele></trkpt>
<trkpt lat="54.4409188" lon="-3.0132338"><ele>528.9</ele></trkpt>
<trkpt lat="54.4409146" lon="-3.0133883"><ele>529.6</ele></trkpt>
<trkpt lat="54.4409148" lon="-3.0135430"><ele>530.3</ele></trkpt>
<trkpt lat="54.4409195" lon="-3.0136975"><ele>531.0</ele></trkpt>
<trkpt lat="54.4409280" lon="-3.0138514"><ele>531.7</ele></trkpt>
<trkpt lat="54.4409372" lon="-3.0140053"><ele>532.4</ele></trkpt>
<trkpt lat="54.4409467" lon="-3.0141591"><ele>533.0</ele></trkpt>
<trkpt lat="54.4409550" lon="-3.0143131"><ele>533.6</ele></trkpt>
<trkpt lat="54.4409597" lon="-3.0144676"><ele>534.1</ele></trkpt>
<trkpt lat="54.4409576" lon="-3.0146221"><ele>534.7</ele></trkpt>
<trkpt lat="54.4409468" lon="-3.0147756"><ele>535.2</ele></trkpt>
<trkpt lat="54.4409279" lon="-3.0149268"><ele>535.7</ele></trkpt>
<trkpt lat="54.4409027" lon="-3.0150752"><ele>536.2</ele></trkpt>
<trkpt lat="54.4408742" lon="-3.0152220"><ele>536.7</ele></trkpt>
<trkpt lat="54.4408456" lon="-3.0153686"><ele>537.3</ele></trkpt>
<trkpt lat="54.4408168" lon="-3.0155151"><ele>538.0</ele></trkpt>
<trkpt lat="54.4407870" lon="-3.0156611"><ele>538.6</ele></trkpt>
<trkpt lat="54.4407562" lon="-3.0158064"><ele>539.2</ele></trkpt>
<trkpt lat="54.4407258" lon="-3.0159520"><ele>539.7</ele></trkpt>
<trkpt lat="54.4406973" lon="-3.0160987"><ele>540.1</ele></trkpt>
<trkpt lat="54.4406713" lon="-3.0162467"><ele>540.5</ele></trkpt>
<trkpt lat="54.4406480" lon="-3.0163961"><ele>540.7</ele></trkpt>
<trkpt lat="54.4406264" lon="-3.0165463"><ele>540.9</ele></trkpt>
<trkpt lat="54.4406054" lon="-3.0166967"><ele>540.9</ele></trkpt>
<trkpt lat="54.4405830" lon="-3.0168465"><ele>540.7</ele></trkpt>
<trkpt lat="54.4405592" lon="-3.0169956"><ele>540.4</ele></trkpt>
<trkpt lat="54.4405351" lon="-3.0171447"><ele>539.9</ele></trkpt>
<trkpt lat="54.4405149" lon="-3.0172954"><ele>539.4</ele></trkpt>
<trkpt lat="54.4405009" lon="-3.0174481"><ele>538.9</ele></trkpt>
<trkpt lat="54.4404917" lon="-3.0176020"><ele>538.4</ele></trkpt>
<trkpt lat="54.4404848" lon="-3.0177562"><ele>537.9</ele></trkpt>
<trkpt lat="54.4404764" lon="-3.0179102"><ele>537.3</ele></trkpt>
<trkpt lat="54.4404642" lon="-3.0180634"><ele>536.6</ele></trkpt>
<trkpt lat="54.4404466" lon="-3.0182150"><ele>535.7</ele></trkpt>
<trkpt lat="54.4404249" lon="-3.0183651"><ele>534.8</ele></trkpt>
<trkpt lat="54.4404010" lon="-3.0185143"><ele>533.8</ele></trkpt>
<trkpt lat="54.4403775" lon="-3.0186636"><ele>532.9</ele></trkpt>
<trkpt lat="54.4403567" lon="-3.0188140"><ele>532.0</ele></trkpt>
<trkpt lat="54.4403420" lon="-3.0189666"><ele>531.2</ele></trkpt>
<trkpt lat="54.4403363" lon="-3.0191209"><ele>530.6</ele></trkpt>
<trkpt lat="54.4403396" lon="-3.0192754"><ele>530.2</ele></trkpt>
<trkpt lat="54.4403506" lon="-3.0194288"><ele>530.0</ele></trkpt>
<trkpt lat="54.4403666" lon="-3.0195810"><ele>529.9</ele></trkpt>
<trkpt lat="54.4403842" lon="-3.0197327"><ele>530.0</ele></trkpt>
<trkpt lat="54.4404010" lon="-3.0198847"><ele>530.0</ele></trkpt>
<trkpt lat="54.4404143" lon="-3.0200376"><ele>530.1</ele></trkpt>
<trkpt lat="54.4404241" lon="-3.0201914"><ele>530.0</ele></trkpt>
<trkpt lat="54.4404323" lon="-3.0203454"><ele>530.0</ele></trkpt>
<trkpt lat="54.4404434" lon="-3.0204989"><ele>529.9</ele></trkpt>
<trkpt lat="54.4404588" lon="-3.0206513"><ele>529.9</ele></trkpt>
<trkpt lat="54.4404788" lon="-3.0208021"><ele>530.0</ele></trkpt>
<trkpt lat="54.4405018" lon="-3.0209516"><ele>529.9</ele></trkpt>
<trkpt lat="54.4405265" lon="-3.0211003"><ele>529.8</ele></trkpt>
<trkpt lat="54.4405507" lon="-3.0212493"><ele>529.7</ele></trkpt>
<trkpt lat="54.4405724" lon="-3.0213994"><ele>529.4</ele></trkpt>
<trkpt lat="54.4405901" lon="-3.0215510"><ele>529.0</ele></trkpt>
<trkpt lat="54.4406026" lon="-3.0217042"><ele>528.5</ele></trkpt>
<trkpt lat="54.4406104" lon="-3.0218582"><ele>527.9</ele></trkpt>
<trkpt lat="54.4406151" lon="-3.0220127"><ele>527.3</ele></trkpt>
<trkpt lat="54.4406182" lon="-3.0221673"><ele>526.7</ele></trkpt>
<trkpt lat="54.4406205" lon="-3.0223219"><ele>526.1</ele></trkpt>
<trkpt lat="54.4406235" lon="-3.0224765"><ele>525.5</ele></trkpt>
<trkpt lat="54.4406278" lon="-3.0226310"><ele>524.9</ele></trkpt>
<trkpt lat="54.4406332" lon="-3.0227854"><ele>524.4</ele></trkpt>
<trkpt lat="54.4406387" lon="-3.0229398"><ele>524.1</ele></trkpt>
<trkpt lat="54.4406423" lon="-3.0230943"><ele>523.9</ele></trkpt>
<trkpt lat="54.4406427" lon="-3.0232490"><ele>523.8</ele></trkpt>
<trkpt lat="54.4406388" lon="-3.0234035"><ele>523.9</ele></trkpt>
<trkpt lat="54.4406326" lon="-3.0235578"><ele>524.3</ele></trkpt>
<trkpt lat="54.4406284" lon="-3.0237123"><ele>524.8</ele></trkpt>
<trkpt lat="54.4406295" lon="-3.0238670"><ele>525.5</ele></trkpt>
<trkpt lat="54.4406339" lon="-3.0240214"><ele>526.4</ele></trkpt>
<trkpt lat="54.4406390" lon="-3.0241759"><ele>527.4</ele></trkpt>
<trkpt lat="54.4406411" lon="-3.0243305"><ele>528.5</ele></trkpt>
<trkpt lat="54.4406383" lon="-3.0244850"><ele>529.8</ele></trkpt>
<trkpt lat="54.4406295" lon="-3.0246389"><ele>531.1</ele></trkpt>
<trkpt lat="54.4406159" lon="-3.0247918"><ele>532.5</ele></trkpt>
<trkpt lat="54.4405992" lon="-3.0249438"><ele>533.9</ele></trkpt>
<trkpt lat="54.4405817" lon="-3.0250956"><ele>535.3</ele></trkpt>
<trkpt lat="54.4405652" lon="-3.0252476"><ele>536.7</ele></trkpt>
<trkpt lat="54.4405512" lon="-3.0254004"><ele>538.2</ele></trkpt>
<trkpt lat="54.4405419" lon="-3.0255542"><ele>539.7</ele></trkpt>
<trkpt lat="54.4405395" lon="-3.0257088"><ele>541.3</ele></trkpt>
<trkpt lat="54.4405451" lon="-3.0258631"><ele>543.0</ele></trkpt>
<trkpt lat="54.4405580" lon="-3.0260161"><ele>544.8</ele></trkpt>
<trkpt lat="54.4405760" lon="-3.0261677"><ele>546.6</ele></trkpt>
<trkpt lat="54.4405961" lon="-3.0263184"><ele>548.4</ele></trkpt>
<trkpt lat="54.4406156" lon="-3.0264694"><ele>550.2</ele></trkpt>
<trkpt lat="54.4406327" lon="-3.0266213"><ele>552.0</ele></trkpt>
<trkpt lat="54.4406491" lon="-3.0267734"><ele>553.7</ele></trkpt>
<trkpt lat="54.4406649" lon="-3.0269256"><ele>555.4</ele></trkpt>
<trkpt lat="54.4406781" lon="-3.0270786"><ele>556.9</ele></trkpt>
<trkpt lat="54.4406893" lon="-3.0272321"><ele>558.3</ele></trkpt>
<trkpt lat="54.4407015" lon="-3.0273853"><ele>559.6</ele></trkpt>
<trkpt lat="54.4407173" lon="-3.0275376"><ele>560.7</ele></trkpt>
<trkpt lat="54.4407389" lon="-3.0276877"><ele>561.8</ele></trkpt>
<trkpt lat="54.4407667" lon="-3.0278347"><ele>562.7</ele></trkpt>
<trkpt lat="54.4408000" lon="-3.0279784"><ele>563.7</ele></trkpt>
<trkpt lat="54.4408367" lon="-3.0281196"><ele>564.6</ele></trkpt>
<trkpt lat="54.4408749" lon="-3.0282596"><ele>565.5</ele></trkpt>
<trkpt lat="54.4409130" lon="-3.0283997"><ele>566.4</ele></trkpt>
<trkpt lat="54.4409497" lon="-3.0285410"><ele>567.2</ele></trkpt>
<trkpt lat="54.4409829" lon="-3.0286847"><ele>568.1</ele></trkpt>
<trkpt lat="54.4410109" lon="-3.0288317"><ele>569.0</ele></trkpt>
<trkpt lat="54.4410326" lon="-3.0289817"><ele>569.8</ele></trkpt>
<trkpt lat="54.4410493" lon="-3.0291337"><ele>570.7</ele></trkpt>
<trkpt lat="54.4410631" lon="-3.0292866"><ele>571.6</ele></trkpt>
<trkpt lat="54.4410769" lon="-3.0294394"><ele>572.5</ele></trkpt>
<trkpt lat="54.4410930" lon="-3.0295916"><ele>573.6</ele></trkpt>
<trkpt lat="54.4411128" lon="-3.0297424"><ele>574.8</ele></trkpt>
<trkpt lat="54.4411340" lon="-3.0298928"><ele>576.1</ele></trkpt>
<trkpt lat="54.4411539" lon="-3.0300436"><ele>577.5</ele></trkpt>
<trkpt lat="54.4411720" lon="-3.0301951"><ele>578.9</ele></trkpt>
<trkpt lat="54.4411885" lon="-3.0303472"><ele>580.3</ele></trkpt>
<trkpt lat="54.4412032" lon="-3.0304998"><ele>581.7</ele></trkpt>
<trkpt lat="54.4412165" lon="-3.0306527"><ele>583.1</ele></trkpt>
<trkpt lat="54.4412284" lon="-3.0308060"><ele>584.4</ele></trkpt>
<trkpt lat="54.4412393" lon="-3.0309596"><ele>585.6</ele></trkpt>
<trkpt lat="54.4412491" lon="-3.0311133"><ele>586.6</ele></trkpt>
<trkpt lat="54.4412585" lon="-3.0312672"><ele>587.5</ele></trkpt>
<trkpt lat="54.4412673" lon="-3.0314211"><ele>588.2</ele></trkpt>
<trkpt lat="54.4412775" lon="-3.0315748"><ele>588.8</ele></trkpt>
<trkpt lat="54.4412919" lon="-3.0317274"><ele>589.1</ele></trkpt>
<trkpt lat="54.4413112" lon="-3.0318785"><ele>589.2</ele></trkpt>
<trkpt lat="54.4413330" lon="-3.0320286"><ele>589.0</ele></trkpt>
<trkpt lat="54.4413546" lon="-3.0321787"><ele>588.7</ele></trkpt>
<trkpt lat="54.4413735" lon="-3.0323299"><ele>588.3</ele></trkpt>
<trkpt lat="54.4413884" lon="-3.0324824"><ele>587.7</ele></trkpt>
<trkpt lat="54.4413994" lon="-3.0326359"><ele>587.0</ele></trkpt>
<trkpt lat="54.4414081" lon="-3.0327899"><ele>586.3</ele></trkpt>
<trkpt lat="54.4414165" lon="-3.0329439"><ele>585.5</ele></trkpt>
<trkpt lat="54.4414265" lon="-3.0330976"><ele>584.6</ele></trkpt>
<trkpt lat="54.4414377" lon="-3.0332511"><ele>583.8</ele></trkpt>
<trkpt lat="54.4414510" lon="-3.0334040"><ele>582.9</ele></trkpt>
<trkpt lat="54.4414692" lon="-3.0335555"><ele>582.0</ele></trkpt>
<trkpt lat="54.4414953" lon="-3.0337034"><ele>581.1</ele></trkpt>
<trkpt lat="54.4415306" lon="-3.0338456"><ele>580.2</ele></trkpt>
<trkpt lat="54.4415740" lon="-3.0339810"><ele>579.4</ele></trkpt>
<trkpt lat="54.4416228" lon="-3.0341108"><ele>578.5</ele></trkpt>
<trkpt lat="54.4416739" lon="-3.0342381"><ele>577.7</ele></trkpt>
<trkpt lat="54.4417244" lon="-3.0343661"><ele>576.9</ele></trkpt>
<trkpt lat="54.4417731" lon="-3.0344962"><ele>576.2</ele></trkpt>
<trkpt lat="54.4418215" lon="-3.0346265"><ele>575.5</ele></trkpt>
<trkpt lat="54.4418707" lon="-3.0347559"><ele>574.8</ele></trkpt>
<trkpt lat="54.4419193" lon="-3.0348861"><ele>574.2</ele></trkpt>
<trkpt lat="54.4419644" lon="-3.0350199"><ele>573.6</ele></trkpt>
<trkpt lat="54.4420036" lon="-3.0351591"><ele>573.1</ele></trkpt>
<trkpt lat="54.4420352" lon="-3.0353038"><ele>572.6</ele></trkpt>
<trkpt lat="54.4420596" lon="-3.0354526"><ele>572.3</ele></trkpt>
<trkpt lat="54.4420789" lon="-3.0356037"><ele>572.0</ele></trkpt>
<trkpt lat="54.4420962" lon="-3.0357555"><ele>571.8</ele></trkpt>
<trkpt lat="54.4421137" lon="-3.0359072"><ele>571.7</ele></trkpt>
<trkpt lat="54.4421315" lon="-3.0360588"><ele>571.6</ele></trkpt>
<trkpt lat="54.4421494" lon="-3.0362104"><ele>571.5</ele></trkpt>
<trkpt lat="54.4421702" lon="-3.0363609"><ele>571.5</ele></trkpt>
<trkpt lat="54.4421943" lon="-3.0365099"><ele>571.4</ele></trkpt>
<trkpt lat="54.4422213" lon="-3.0366574"><ele>571.2</ele></trkpt>
<trkpt lat="54.4422494" lon="-3.0368044"><ele>571.1</ele></trkpt>
<trkpt lat="54.4422768" lon="-3.0369516"><ele>570.9</ele></trkpt>
<trkpt lat="54.4423016" lon="-3.0371003"><ele>570.9</ele></trkpt>
<trkpt lat="54.4423226" lon="-3.0372507"><ele>570.9</ele></trkpt>
<trkpt lat="54.4423397" lon="-3.0374026"><ele>571.1</ele></trkpt>
<trkpt lat="54.4423544" lon="-3.0375552"><ele>571.5</ele></trkpt>
<trkpt lat="54.4423701" lon="-3.0377074"><ele>572.0</ele></trkpt>
<trkpt lat="54.4423914" lon="-3.0378577"><ele>572.7</ele></trkpt>
<trkpt lat="54.4424205" lon="-3.0380040"><ele>573.3</ele></trkpt>
<trkpt lat="54.4424569" lon="-3.0381454"><ele>574.1</ele></trkpt>
<trkpt lat="54.4424982" lon="-3.0382827"><ele>574.9</ele></trkpt>
<trkpt lat="54.4425416" lon="-3.0384183"><ele>576.0</ele></trkpt>
<trkpt lat="54.4425844" lon="-3.0385543"><ele>577.2</ele></trkpt>
<trkpt lat="54.4426245" lon="-3.0386927"><ele>578.8</ele></trkpt>
<trkpt lat="54.4426612" lon="-3.0388339"><ele>580.6</ele></trkpt>
<trkpt lat="54.4426950" lon="-3.0389773"><ele>582.6</ele></trkpt>
<trkpt lat="54.4427285" lon="-3.0391208"><ele>584.8</ele></trkpt>
<trkpt lat="54.4427626" lon="-3.0392639"><ele>587.0</ele></trkpt>
<trkpt lat="54.4427972" lon="-3.0394067"><ele>589.2</ele></trkpt>
<trkpt lat="54.4428345" lon="-3.0395474"><ele>591.4</ele></trkpt>
<trkpt lat="54.4428769" lon="-3.0396838"><ele>593.4</ele></trkpt>
<trkpt lat="54.4429261" lon="-3.0398132"><ele>595.2</ele></trkpt>
<trkpt lat="54.4429812" lon="-3.0399353"><ele>596.9</ele></trkpt>
<trkpt lat="54.4430407" lon="-3.0400513"><ele>598.4</ele></trkpt>
<trkpt lat="54.4431017" lon="-3.0401650"><ele>599.9</ele></trkpt>
<trkpt lat="54.4431618" lon="-3.0402801"><ele>601.4</ele></trkpt>
<trkpt lat="54.4432192" lon="-3.0403990"><ele>603.0</ele></trkpt>
<trkpt lat="54.4432745" lon="-3.0405211"><ele>604.6</ele></trkpt>
<trkpt lat="54.4433269" lon="-3.0406467"><ele>606.1</ele></trkpt>
<trkpt lat="54.4433750" lon="-3.0407774"><ele>607.7</ele></trkpt>
<trkpt lat="54.4434187" lon="-3.0409126"><ele>609.3</ele></trkpt>
<trkpt lat="54.4434587" lon="-3.0410511"><ele>610.8</ele></trkpt>
<trkpt lat="54.4434969" lon="-3.0411912"><ele>612.2</ele></trkpt>
<trkpt lat="54.4435351" lon="-3.0413312"><ele>613.5</ele></trkpt>
<trkpt lat="54.4435748" lon="-3.0414699"><ele>614.6</ele></trkpt>
<trkpt lat="54.4436174" lon="-3.0416062"><ele>615.6</ele></trkpt>
<trkpt lat="54.4436627" lon="-3.0417397"><ele>616.4</ele></trkpt>
<trkpt lat="54.4437095" lon="-3.0418719"><ele>617.0</ele></trkpt>
<trkpt lat="54.4437546" lon="-3.0420056"><ele>617.7</ele></trkpt>
<trkpt lat="54.4437949" lon="-3.0421439"><ele>618.4</ele></trkpt>
<trkpt lat="54.4438301" lon="-3.0422862"><ele>619.2</ele></trkpt>
<trkpt lat="54.4438622" lon="-3.0424307"><ele>620.1</ele></trkpt>
<trkpt lat="54.4438938" lon="-3.0425755"><ele>621.1</ele></trkpt>
<trkpt lat="54.4439283" lon="-3.0427184"><ele>622.0</ele></trkpt>
<trkpt lat="54.4439678" lon="-3.0428572"><ele>622.9</ele></trkpt>
<trkpt lat="54.4440141" lon="-3.0429898"><ele>623.7</ele></trkpt>
<trkpt lat="54.4440672" lon="-3.0431145"><ele>624.4</ele></trkpt>
<trkpt lat="54.4441256" lon="-3.0432321"><ele>625.1</ele></trkpt>
<trkpt lat="54.4441866" lon="-3.0433457"><ele>625.8</ele></trkpt>
<trkpt lat="54.4442490" lon="-3.0434571"><ele>626.6</ele></trkpt>
<trkpt lat="54.4443116" lon="-3.0435682"><ele>627.4</ele></trkpt>
<trkpt lat="54.4443732" lon="-3.0436809"><ele>628.4</ele></trkpt>
<trkpt lat="54.4444327" lon="-3.0437969"><ele>629.4</ele></trkpt>
<trkpt lat="54.4444897" lon="-3.0439165"><ele>630.7</ele></trkpt>
<trkpt lat="54.4445454" lon="-3.0440379"><ele>632.0</ele></trkpt>
<trkpt lat="54.4446013" lon="-3.0441591"><ele>633.4</ele></trkpt>
<trkpt lat="54.4446592" lon="-3.0442775"><ele>634.9</ele></trkpt>
<trkpt lat="54.4447201" lon="-3.0443913"><ele>636.4</ele></trkpt>
<trkpt lat="54.4447829" lon="-3.0445019"><ele>637.9</ele></trkpt>
<trkpt lat="54.4448452" lon="-3.0446135"><ele>639.5</ele></trkpt>
<trkpt lat="54.4449050" lon="-3.0447290"><ele>641.2</ele></trkpt>
<trkpt lat="54.4449625" lon="-3.0448479"><ele>642.8</ele></trkpt>
<trkpt lat="54.4450191" lon="-3.0449681"><ele>644.4</ele></trkpt>
<trkpt lat="54.4450763" lon="-3.0450875"><ele>645.8</ele></trkpt>
<trkpt lat="54.4451355" lon="-3.0452039"><ele>647.2</ele></trkpt>
<trkpt lat="54.4451969" lon="-3.0453169"><ele>648.4</ele></trkpt>
<trkpt lat="54.4452603" lon="-3.0454265"><ele>649.4</ele></trkpt>
<trkpt lat="54.4453250" lon="-3.0455340"><ele>650.3</ele></trkpt>
<trkpt lat="54.4453898" lon="-3.0456412"><ele>650.9</ele></trkpt>
<trkpt lat="54.4454539" lon="-3.0457498"><ele>651.4</ele></trkpt>
<trkpt lat="54.4455152" lon="-3.0458628"><ele>651.5</ele></trkpt>
<trkpt lat="54.4455724" lon="-3.0459822"><ele>651.4</ele></trkpt>
<trkpt lat="54.4456255" lon="-3.0461070"><ele>650.9</ele></trkpt>
<trkpt lat="54.4456757" lon="-3.0462353"><ele>650.3</ele></trkpt>
<trkpt lat="54.4457253" lon="-3.0463644"><ele>649.5</ele></trkpt>
<trkpt lat="54.4457762" lon="-3.0464919"><ele>648.5</ele></trkpt>
<trkpt lat="54.4458303" lon="-3.0466155"><ele>647.4</ele></trkpt>
<trkpt lat="54.4458887" lon="-3.0467331"><ele>646.2</ele></trkpt>
<trkpt lat="54.4459510" lon="-3.0468446"><ele>645.0</ele></trkpt>
<trkpt lat="54.4460157" lon="-3.0469519"><ele>643.7</ele></trkpt>
<trkpt lat="54.4460802" lon="-3.0470596"><ele>642.4</ele></trkpt>
<trkpt lat="54.4461426" lon="-3.0471710"><ele>641.0</ele></trkpt>
<trkpt lat="54.4462029" lon="-3.0472859"><ele>639.7</ele></trkpt>
<trkpt lat="54.4462615" lon="-3.0474032"><ele>638.3</ele></trkpt>
<trkpt lat="54.4463201" lon="-3.0475206"><ele>637.0</ele></trkpt>
<trkpt lat="54.4463806" lon="-3.0476349"><ele>635.7</ele></trkpt>
<trkpt lat="54.4464444" lon="-3.0477438"><ele>634.4</ele></trkpt>
<trkpt lat="54.4465127" lon="-3.0478444"><ele>633.2</ele></trkpt>
<trkpt lat="54.4465852" lon="-3.0479358"><ele>632.1</ele></trkpt>
<trkpt lat="54.4466607" lon="-3.0480199"><ele>631.1</ele></trkpt>
<trkpt lat="54.4467375" lon="-3.0481004"><ele>630.1</ele></trkpt>
<trkpt lat="54.4468134" lon="-3.0481833"><ele>629.2</ele></trkpt>
<trkpt lat="54.4468875" lon="-3.0482710"><ele>628.4</ele></trkpt>
<trkpt lat="54.4469598" lon="-3.0483629"><ele>627.6</ele></trkpt>
<trkpt lat="54.4470309" lon="-3.0484576"><ele>626.7</ele></trkpt>
<trkpt lat="54.4471025" lon="-3.0485512"><ele>625.9</ele></trkpt>
<trkpt lat="54.4471763" lon="-3.0486396"><ele>625.0</ele></trkpt>
<trkpt lat="54.4472531" lon="-3.0487200"><ele>624.0</ele></trkpt>
<trkpt lat="54.4473331" lon="-3.0487908"><ele>623.1</ele></trkpt>
<trkpt lat="54.4474158" lon="-3.0488513"><ele>622.2</ele></trkpt>
<trkpt lat="54.4474999" lon="-3.0489062"><ele>621.3</ele></trkpt>
<trkpt lat="54.4475843" lon="-3.0489594"><ele>620.4</ele></trkpt>
<trkpt lat="54.4476689" lon="-3.0490120"><ele>619.5</ele></trkpt>
<trkpt lat="54.4477530" lon="-3.0490667"><ele>618.6</ele></trkpt>
<trkpt lat="54.4478360" lon="-3.0491261"><ele>617.7</ele></trkpt>
<trkpt lat="54.4479177" lon="-3.0491908"><ele>616.6</ele></trkpt>
<trkpt lat="54.4479986" lon="-3.0492583"><ele>615.6</ele></trkpt>
<trkpt lat="54.4480794" lon="-3.0493264"><ele>614.5</ele></trkpt>
<trkpt lat="54.4481609" lon="-3.0493915"><ele>613.5</ele></trkpt>
<trkpt lat="54.4482439" lon="-3.0494512"><ele>612.7</ele></trkpt>
<trkpt lat="54.4483277" lon="-3.0495073"><ele>611.9</ele></trkpt>
<trkpt lat="54.4484119" lon="-3.0495616"><ele>611.3</ele></trkpt>
<trkpt lat="54.4484963" lon="-3.0496152"><ele>610.7</ele></trkpt>
<trkpt lat="54.4485809" lon="-3.0496673"><ele>610.2</ele></trkpt>
<trkpt lat="54.4486659" lon="-3.0497178"><ele>609.7</ele></trkpt>
<trkpt lat="54.4487514" lon="-3.0497660"><ele>609.3</ele></trkpt>
<trkpt lat="54.4488371" lon="-3.0498128"><ele>608.9</ele></trkpt>
<trkpt lat="54.4489181" lon="-3.0498798"><ele>608.2</ele></trkpt>
<trkpt lat="54.4490004" lon="-3.0499419"><ele>607.5</ele></trkpt>
<trkpt lat="54.4490846" lon="-3.0499964"><ele>606.8</ele></trkpt>
<trkpt lat="54.4491704" lon="-3.0500425"><ele>606.1</ele></trkpt>
<trkpt lat="54.4492581" lon="-3.0500762"><ele>605.4</ele></trkpt>
<trkpt lat="54.4493472" lon="-3.0500979"><ele>604.7</ele></trkpt>
<trkpt lat="54.4494367" lon="-3.0501106"><ele>604.0</ele></trkpt>
<trkpt lat="54.4495266" lon="-3.0501162"><ele>603.3</ele></trkpt>
<trkpt lat="54.4496165" lon="-3.0501154"><ele>602.7</ele></trkpt>
<trkpt lat="54.4497063" lon="-3.0501069"><ele>602.2</ele></trkpt>
<trkpt lat="54.4497956" lon="-3.0500894"><ele>601.8</ele></trkpt>
<trkpt lat="54.4498840" lon="-3.0500609"><ele>601.5</ele></trkpt>
<trkpt lat="54.4499707" lon="-3.0500200"><ele>601.3</ele></trkpt>
</trkseg></trk></gpx>
